<?xml version='1.0' encoding='UTF-8'?>
<gpx version="1.1" creator="https://www.komoot.de" xmlns="http://www.topografix.com/GPX/1/1" xmlns:xsi="http://www.w3.org/2001/XMLSchema-instance" xsi:schemaLocation="http://www.topografix.com/GPX/1/1 http://www.topografix.com/GPX/1/1/gpx.xsd">
  <metadata>
    <name>Hike</name>
    <author>
      <link href="https://www.komoot.de">
        <text>komoot</text>
        <type>text/html</type>
      </link>
    </author>
  </metadata>
  <trk>
    <name>Hike</name>
    <trkseg>
      <trkpt lat="37.221032" lon="-121.981627">
        <ele>99.804372</ele>
        <time>2023-02-12T23:19:45.196Z</time>
      </trkpt>
      <trkpt lat="37.221182" lon="-121.981594">
        <ele>99.804372</ele>
        <time>2023-02-12T23:19:54.345Z</time>
      </trkpt>
      <trkpt lat="37.221157" lon="-121.981708">
        <ele>99.804372</ele>
        <time>2023-02-12T23:20:07.390Z</time>
      </trkpt>
      <trkpt lat="37.221143" lon="-121.981824">
        <ele>99.804372</ele>
        <time>2023-02-12T23:20:15.380Z</time>
      </trkpt>
      <trkpt lat="37.221151" lon="-121.981945">
        <ele>99.804372</ele>
        <time>2023-02-12T23:20:27.338Z</time>
      </trkpt>
      <trkpt lat="37.221115" lon="-121.982049">
        <ele>99.804372</ele>
        <time>2023-02-12T23:20:46.357Z</time>
      </trkpt>
      <trkpt lat="37.221164" lon="-121.982183">
        <ele>99.804372</ele>
        <time>2023-02-12T23:21:20.349Z</time>
      </trkpt>
      <trkpt lat="37.221110" lon="-121.982276">
        <ele>99.804372</ele>
        <time>2023-02-12T23:21:27.338Z</time>
      </trkpt>
      <trkpt lat="37.221034" lon="-121.982351">
        <ele>99.804372</ele>
        <time>2023-02-12T23:21:33.345Z</time>
      </trkpt>
      <trkpt lat="37.220948" lon="-121.982423">
        <ele>99.764288</ele>
        <time>2023-02-12T23:21:37.335Z</time>
      </trkpt>
      <trkpt lat="37.220878" lon="-121.982496">
        <ele>99.664703</ele>
        <time>2023-02-12T23:21:44.354Z</time>
      </trkpt>
      <trkpt lat="37.220804" lon="-121.982569">
        <ele>99.561711</ele>
        <time>2023-02-12T23:21:52.338Z</time>
      </trkpt>
      <trkpt lat="37.220725" lon="-121.982646">
        <ele>99.452260</ele>
        <time>2023-02-12T23:22:01.342Z</time>
      </trkpt>
      <trkpt lat="37.220657" lon="-121.982732">
        <ele>99.346634</ele>
        <time>2023-02-12T23:22:09.338Z</time>
      </trkpt>
      <trkpt lat="37.220612" lon="-121.982836">
        <ele>99.243478</ele>
        <time>2023-02-12T23:22:16.337Z</time>
      </trkpt>
      <trkpt lat="37.220544" lon="-121.982915">
        <ele>99.142090</ele>
        <time>2023-02-12T23:22:22.343Z</time>
      </trkpt>
      <trkpt lat="37.220491" lon="-121.983006">
        <ele>99.043830</ele>
        <time>2023-02-12T23:22:28.349Z</time>
      </trkpt>
      <trkpt lat="37.220441" lon="-121.983114">
        <ele>98.934952</ele>
        <time>2023-02-12T23:22:36.310Z</time>
      </trkpt>
      <trkpt lat="37.220408" lon="-121.983221">
        <ele>98.834947</ele>
        <time>2023-02-12T23:22:43.319Z</time>
      </trkpt>
      <trkpt lat="37.220335" lon="-121.983304">
        <ele>98.727168</ele>
        <time>2023-02-12T23:22:50.334Z</time>
      </trkpt>
      <trkpt lat="37.220288" lon="-121.983410">
        <ele>98.621429</ele>
        <time>2023-02-12T23:22:58.343Z</time>
      </trkpt>
      <trkpt lat="37.220209" lon="-121.983511">
        <ele>98.498042</ele>
        <time>2023-02-12T23:23:06.323Z</time>
      </trkpt>
      <trkpt lat="37.220148" lon="-121.983599">
        <ele>98.396358</ele>
        <time>2023-02-12T23:23:13.362Z</time>
      </trkpt>
      <trkpt lat="37.220091" lon="-121.983694">
        <ele>98.292689</ele>
        <time>2023-02-12T23:23:20.346Z</time>
      </trkpt>
      <trkpt lat="37.220046" lon="-121.983793">
        <ele>98.193339</ele>
        <time>2023-02-12T23:23:27.337Z</time>
      </trkpt>
      <trkpt lat="37.219996" lon="-121.983894">
        <ele>98.089689</ele>
        <time>2023-02-12T23:23:34.334Z</time>
      </trkpt>
      <trkpt lat="37.219944" lon="-121.983994">
        <ele>97.985598</ele>
        <time>2023-02-12T23:23:40.348Z</time>
      </trkpt>
      <trkpt lat="37.219896" lon="-121.984108">
        <ele>97.873208</ele>
        <time>2023-02-12T23:23:47.337Z</time>
      </trkpt>
      <trkpt lat="37.219859" lon="-121.984221">
        <ele>97.890178</ele>
        <time>2023-02-12T23:23:57.351Z</time>
      </trkpt>
      <trkpt lat="37.219797" lon="-121.984310">
        <ele>97.971279</ele>
        <time>2023-02-12T23:24:05.309Z</time>
      </trkpt>
      <trkpt lat="37.219731" lon="-121.984410">
        <ele>98.060360</ele>
        <time>2023-02-12T23:24:21.326Z</time>
      </trkpt>
      <trkpt lat="37.219670" lon="-121.984498">
        <ele>98.140379</ele>
        <time>2023-02-12T23:24:29.327Z</time>
      </trkpt>
      <trkpt lat="37.219609" lon="-121.984591">
        <ele>98.223015</ele>
        <time>2023-02-12T23:24:36.338Z</time>
      </trkpt>
      <trkpt lat="37.219552" lon="-121.984701">
        <ele>98.313026</ele>
        <time>2023-02-12T23:24:43.347Z</time>
      </trkpt>
      <trkpt lat="37.219504" lon="-121.984801">
        <ele>98.393108</ele>
        <time>2023-02-12T23:24:48.337Z</time>
      </trkpt>
      <trkpt lat="37.219460" lon="-121.984909">
        <ele>98.476312</ele>
        <time>2023-02-12T23:24:56.346Z</time>
      </trkpt>
      <trkpt lat="37.219376" lon="-121.985032">
        <ele>98.587446</ele>
        <time>2023-02-12T23:25:50.325Z</time>
      </trkpt>
      <trkpt lat="37.219330" lon="-121.985143">
        <ele>98.673269</ele>
        <time>2023-02-12T23:25:58.304Z</time>
      </trkpt>
      <trkpt lat="37.219299" lon="-121.985250">
        <ele>98.751362</ele>
        <time>2023-02-12T23:26:06.318Z</time>
      </trkpt>
      <trkpt lat="37.219230" lon="-121.985332">
        <ele>98.833183</ele>
        <time>2023-02-12T23:26:16.355Z</time>
      </trkpt>
      <trkpt lat="37.219168" lon="-121.985419">
        <ele>98.913258</ele>
        <time>2023-02-12T23:26:24.348Z</time>
      </trkpt>
      <trkpt lat="37.219117" lon="-121.985522">
        <ele>98.996444</ele>
        <time>2023-02-12T23:26:31.350Z</time>
      </trkpt>
      <trkpt lat="37.219052" lon="-121.985607">
        <ele>99.077270</ele>
        <time>2023-02-12T23:26:38.353Z</time>
      </trkpt>
      <trkpt lat="37.218994" lon="-121.985720">
        <ele>99.169477</ele>
        <time>2023-02-12T23:26:43.353Z</time>
      </trkpt>
      <trkpt lat="37.218932" lon="-121.985816">
        <ele>99.254251</ele>
        <time>2023-02-12T23:26:49.319Z</time>
      </trkpt>
      <trkpt lat="37.218873" lon="-121.985901">
        <ele>99.331588</ele>
        <time>2023-02-12T23:26:55.331Z</time>
      </trkpt>
      <trkpt lat="37.218817" lon="-121.986001">
        <ele>99.389046</ele>
        <time>2023-02-12T23:27:03.337Z</time>
      </trkpt>
      <trkpt lat="37.218754" lon="-121.986093">
        <ele>99.400237</ele>
        <time>2023-02-12T23:27:13.315Z</time>
      </trkpt>
      <trkpt lat="37.218700" lon="-121.986201">
        <ele>99.412000</ele>
        <time>2023-02-12T23:27:20.329Z</time>
      </trkpt>
      <trkpt lat="37.218667" lon="-121.986313">
        <ele>99.423014</ele>
        <time>2023-02-12T23:27:29.341Z</time>
      </trkpt>
      <trkpt lat="37.218604" lon="-121.986405">
        <ele>99.434206</ele>
        <time>2023-02-12T23:27:35.318Z</time>
      </trkpt>
      <trkpt lat="37.218550" lon="-121.986503">
        <ele>99.445198</ele>
        <time>2023-02-12T23:27:43.347Z</time>
      </trkpt>
      <trkpt lat="37.218489" lon="-121.986589">
        <ele>99.455821</ele>
        <time>2023-02-12T23:27:52.349Z</time>
      </trkpt>
      <trkpt lat="37.218425" lon="-121.986676">
        <ele>99.466745</ele>
        <time>2023-02-12T23:27:59.340Z</time>
      </trkpt>
      <trkpt lat="37.218352" lon="-121.986756">
        <ele>99.477967</ele>
        <time>2023-02-12T23:28:08.340Z</time>
      </trkpt>
      <trkpt lat="37.218289" lon="-121.986838">
        <ele>99.488477</ele>
        <time>2023-02-12T23:28:16.320Z</time>
      </trkpt>
      <trkpt lat="37.218206" lon="-121.986929">
        <ele>99.501239</ele>
        <time>2023-02-12T23:28:24.335Z</time>
      </trkpt>
      <trkpt lat="37.218140" lon="-121.987008">
        <ele>99.511799</ele>
        <time>2023-02-12T23:28:30.345Z</time>
      </trkpt>
      <trkpt lat="37.218067" lon="-121.987078">
        <ele>99.522438</ele>
        <time>2023-02-12T23:28:39.336Z</time>
      </trkpt>
      <trkpt lat="37.218001" lon="-121.987154">
        <ele>99.532810</ele>
        <time>2023-02-12T23:28:46.357Z</time>
      </trkpt>
      <trkpt lat="37.217920" lon="-121.987231">
        <ele>99.544577</ele>
        <time>2023-02-12T23:28:53.324Z</time>
      </trkpt>
      <trkpt lat="37.217855" lon="-121.987312">
        <ele>99.555183</ele>
        <time>2023-02-12T23:29:00.342Z</time>
      </trkpt>
      <trkpt lat="37.217786" lon="-121.987385">
        <ele>99.565633</ele>
        <time>2023-02-12T23:29:07.380Z</time>
      </trkpt>
      <trkpt lat="37.217713" lon="-121.987463">
        <ele>99.576735</ele>
        <time>2023-02-12T23:29:14.373Z</time>
      </trkpt>
      <trkpt lat="37.217630" lon="-121.987533">
        <ele>99.588315</ele>
        <time>2023-02-12T23:29:20.383Z</time>
      </trkpt>
      <trkpt lat="37.217550" lon="-121.987594">
        <ele>99.682113</ele>
        <time>2023-02-12T23:29:26.381Z</time>
      </trkpt>
      <trkpt lat="37.217474" lon="-121.987659">
        <ele>99.842948</ele>
        <time>2023-02-12T23:29:33.370Z</time>
      </trkpt>
      <trkpt lat="37.217393" lon="-121.987719">
        <ele>100.007438</ele>
        <time>2023-02-12T23:29:41.379Z</time>
      </trkpt>
      <trkpt lat="37.217300" lon="-121.987785">
        <ele>100.194284</ele>
        <time>2023-02-12T23:29:47.388Z</time>
      </trkpt>
      <trkpt lat="37.217218" lon="-121.987857">
        <ele>100.369295</ele>
        <time>2023-02-12T23:29:54.384Z</time>
      </trkpt>
      <trkpt lat="37.217137" lon="-121.987921">
        <ele>100.536685</ele>
        <time>2023-02-12T23:30:02.376Z</time>
      </trkpt>
      <trkpt lat="37.217044" lon="-121.987963">
        <ele>100.709551</ele>
        <time>2023-02-12T23:30:09.377Z</time>
      </trkpt>
      <trkpt lat="37.216958" lon="-121.988001">
        <ele>100.869015</ele>
        <time>2023-02-12T23:30:15.386Z</time>
      </trkpt>
      <trkpt lat="37.216864" lon="-121.988029">
        <ele>101.037993</ele>
        <time>2023-02-12T23:30:24.371Z</time>
      </trkpt>
      <trkpt lat="37.216773" lon="-121.988062">
        <ele>101.203665</ele>
        <time>2023-02-12T23:30:33.382Z</time>
      </trkpt>
      <trkpt lat="37.216684" lon="-121.988078">
        <ele>101.360922</ele>
        <time>2023-02-12T23:30:39.360Z</time>
      </trkpt>
      <trkpt lat="37.216589" lon="-121.988126">
        <ele>101.540034</ele>
        <time>2023-02-12T23:30:47.380Z</time>
      </trkpt>
      <trkpt lat="37.216493" lon="-121.988131">
        <ele>101.708092</ele>
        <time>2023-02-12T23:30:54.363Z</time>
      </trkpt>
      <trkpt lat="37.216396" lon="-121.988101">
        <ele>101.882825</ele>
        <time>2023-02-12T23:31:00.377Z</time>
      </trkpt>
      <trkpt lat="37.216303" lon="-121.988093">
        <ele>102.045873</ele>
        <time>2023-02-12T23:31:08.382Z</time>
      </trkpt>
      <trkpt lat="37.216207" lon="-121.988060">
        <ele>102.219964</ele>
        <time>2023-02-12T23:31:14.380Z</time>
      </trkpt>
      <trkpt lat="37.216117" lon="-121.988037">
        <ele>102.380610</ele>
        <time>2023-02-12T23:31:20.385Z</time>
      </trkpt>
      <trkpt lat="37.216025" lon="-121.988022">
        <ele>102.542878</ele>
        <time>2023-02-12T23:31:27.387Z</time>
      </trkpt>
      <trkpt lat="37.215932" lon="-121.988011">
        <ele>102.706265</ele>
        <time>2023-02-12T23:31:37.362Z</time>
      </trkpt>
      <trkpt lat="37.215840" lon="-121.987984">
        <ele>102.736095</ele>
        <time>2023-02-12T23:31:43.395Z</time>
      </trkpt>
      <trkpt lat="37.215741" lon="-121.987973">
        <ele>102.731905</ele>
        <time>2023-02-12T23:31:51.342Z</time>
      </trkpt>
      <trkpt lat="37.215652" lon="-121.987929">
        <ele>102.727872</ele>
        <time>2023-02-12T23:32:00.372Z</time>
      </trkpt>
      <trkpt lat="37.215555" lon="-121.987891">
        <ele>102.723588</ele>
        <time>2023-02-12T23:32:08.373Z</time>
      </trkpt>
      <trkpt lat="37.215470" lon="-121.987854">
        <ele>102.719795</ele>
        <time>2023-02-12T23:32:16.388Z</time>
      </trkpt>
      <trkpt lat="37.215376" lon="-121.987797">
        <ele>102.715394</ele>
        <time>2023-02-12T23:32:25.350Z</time>
      </trkpt>
      <trkpt lat="37.215286" lon="-121.987775">
        <ele>102.711529</ele>
        <time>2023-02-12T23:32:31.312Z</time>
      </trkpt>
      <trkpt lat="37.215186" lon="-121.987788">
        <ele>102.707290</ele>
        <time>2023-02-12T23:32:38.317Z</time>
      </trkpt>
      <trkpt lat="37.215090" lon="-121.987784">
        <ele>102.703241</ele>
        <time>2023-02-12T23:32:47.320Z</time>
      </trkpt>
      <trkpt lat="37.215001" lon="-121.987748">
        <ele>102.699299</ele>
        <time>2023-02-12T23:32:56.310Z</time>
      </trkpt>
      <trkpt lat="37.214914" lon="-121.987707">
        <ele>102.695381</ele>
        <time>2023-02-12T23:33:04.327Z</time>
      </trkpt>
      <trkpt lat="37.214825" lon="-121.987674">
        <ele>102.691468</ele>
        <time>2023-02-12T23:33:12.354Z</time>
      </trkpt>
      <trkpt lat="37.214727" lon="-121.987617">
        <ele>102.686915</ele>
        <time>2023-02-12T23:33:18.369Z</time>
      </trkpt>
      <trkpt lat="37.214644" lon="-121.987550">
        <ele>102.682755</ele>
        <time>2023-02-12T23:33:23.367Z</time>
      </trkpt>
      <trkpt lat="37.214564" lon="-121.987494">
        <ele>102.678894</ele>
        <time>2023-02-12T23:33:29.346Z</time>
      </trkpt>
      <trkpt lat="37.214473" lon="-121.987443">
        <ele>102.674692</ele>
        <time>2023-02-12T23:33:36.357Z</time>
      </trkpt>
      <trkpt lat="37.214376" lon="-121.987412">
        <ele>102.670472</ele>
        <time>2023-02-12T23:33:44.349Z</time>
      </trkpt>
      <trkpt lat="37.214279" lon="-121.987397">
        <ele>102.666352</ele>
        <time>2023-02-12T23:33:52.321Z</time>
      </trkpt>
      <trkpt lat="37.214176" lon="-121.987376">
        <ele>102.802211</ele>
        <time>2023-02-12T23:34:00.324Z</time>
      </trkpt>
      <trkpt lat="37.214084" lon="-121.987369">
        <ele>103.161959</ele>
        <time>2023-02-12T23:34:08.323Z</time>
      </trkpt>
      <trkpt lat="37.213986" lon="-121.987361">
        <ele>103.545275</ele>
        <time>2023-02-12T23:34:17.300Z</time>
      </trkpt>
      <trkpt lat="37.213897" lon="-121.987371">
        <ele>103.894043</ele>
        <time>2023-02-12T23:34:25.330Z</time>
      </trkpt>
      <trkpt lat="37.213801" lon="-121.987380">
        <ele>104.269788</ele>
        <time>2023-02-12T23:34:34.335Z</time>
      </trkpt>
      <trkpt lat="37.213707" lon="-121.987373">
        <ele>104.637328</ele>
        <time>2023-02-12T23:34:42.343Z</time>
      </trkpt>
      <trkpt lat="37.213610" lon="-121.987377">
        <ele>105.016138</ele>
        <time>2023-02-12T23:34:50.337Z</time>
      </trkpt>
      <trkpt lat="37.213519" lon="-121.987388">
        <ele>105.372966</ele>
        <time>2023-02-12T23:34:58.350Z</time>
      </trkpt>
      <trkpt lat="37.213422" lon="-121.987394">
        <ele>105.752030</ele>
        <time>2023-02-12T23:35:05.326Z</time>
      </trkpt>
      <trkpt lat="37.213330" lon="-121.987412">
        <ele>106.115453</ele>
        <time>2023-02-12T23:35:13.334Z</time>
      </trkpt>
      <trkpt lat="37.213231" lon="-121.987425">
        <ele>106.503971</ele>
        <time>2023-02-12T23:35:21.315Z</time>
      </trkpt>
      <trkpt lat="37.213137" lon="-121.987460">
        <ele>106.886658</ele>
        <time>2023-02-12T23:35:29.347Z</time>
      </trkpt>
      <trkpt lat="37.213035" lon="-121.987486">
        <ele>107.292899</ele>
        <time>2023-02-12T23:35:39.387Z</time>
      </trkpt>
      <trkpt lat="37.212937" lon="-121.987485">
        <ele>107.675420</ele>
        <time>2023-02-12T23:35:45.334Z</time>
      </trkpt>
      <trkpt lat="37.212844" lon="-121.987524">
        <ele>108.058121</ele>
        <time>2023-02-12T23:35:53.305Z</time>
      </trkpt>
      <trkpt lat="37.212747" lon="-121.987535">
        <ele>108.438267</ele>
        <time>2023-02-12T23:36:02.312Z</time>
      </trkpt>
      <trkpt lat="37.212656" lon="-121.987582">
        <ele>108.822327</ele>
        <time>2023-02-12T23:36:09.326Z</time>
      </trkpt>
      <trkpt lat="37.212567" lon="-121.987626">
        <ele>109.195662</ele>
        <time>2023-02-12T23:36:16.305Z</time>
      </trkpt>
      <trkpt lat="37.212483" lon="-121.987694">
        <ele>109.585758</ele>
        <time>2023-02-12T23:36:24.319Z</time>
      </trkpt>
      <trkpt lat="37.212422" lon="-121.987794">
        <ele>109.905259</ele>
        <time>2023-02-12T23:36:31.327Z</time>
      </trkpt>
      <trkpt lat="37.212334" lon="-121.987849">
        <ele>110.194743</ele>
        <time>2023-02-12T23:36:39.312Z</time>
      </trkpt>
      <trkpt lat="37.212248" lon="-121.987918">
        <ele>110.495296</ele>
        <time>2023-02-12T23:36:47.317Z</time>
      </trkpt>
      <trkpt lat="37.212155" lon="-121.987963">
        <ele>110.788807</ele>
        <time>2023-02-12T23:36:55.322Z</time>
      </trkpt>
      <trkpt lat="37.212062" lon="-121.988015">
        <ele>111.088614</ele>
        <time>2023-02-12T23:37:03.321Z</time>
      </trkpt>
      <trkpt lat="37.211976" lon="-121.988077">
        <ele>111.380655</ele>
        <time>2023-02-12T23:37:10.340Z</time>
      </trkpt>
      <trkpt lat="37.211885" lon="-121.988119">
        <ele>111.666175</ele>
        <time>2023-02-12T23:37:18.324Z</time>
      </trkpt>
      <trkpt lat="37.211818" lon="-121.988194">
        <ele>111.930511</ele>
        <time>2023-02-12T23:37:25.314Z</time>
      </trkpt>
      <trkpt lat="37.211747" lon="-121.988275">
        <ele>112.213017</ele>
        <time>2023-02-12T23:37:32.318Z</time>
      </trkpt>
      <trkpt lat="37.211678" lon="-121.988349">
        <ele>112.480248</ele>
        <time>2023-02-12T23:37:40.310Z</time>
      </trkpt>
      <trkpt lat="37.211638" lon="-121.988451">
        <ele>112.746906</ele>
        <time>2023-02-12T23:37:47.349Z</time>
      </trkpt>
      <trkpt lat="37.211585" lon="-121.988554">
        <ele>113.034516</ele>
        <time>2023-02-12T23:37:54.342Z</time>
      </trkpt>
      <trkpt lat="37.211556" lon="-121.988671">
        <ele>113.321908</ele>
        <time>2023-02-12T23:38:04.328Z</time>
      </trkpt>
      <trkpt lat="37.211521" lon="-121.988776">
        <ele>113.588872</ele>
        <time>2023-02-12T23:38:11.323Z</time>
      </trkpt>
      <trkpt lat="37.211476" lon="-121.988883">
        <ele>113.872670</ele>
        <time>2023-02-12T23:38:19.314Z</time>
      </trkpt>
      <trkpt lat="37.211425" lon="-121.988980">
        <ele>114.145277</ele>
        <time>2023-02-12T23:38:27.302Z</time>
      </trkpt>
      <trkpt lat="37.211361" lon="-121.989068">
        <ele>114.424779</ele>
        <time>2023-02-12T23:38:35.318Z</time>
      </trkpt>
      <trkpt lat="37.211296" lon="-121.989154">
        <ele>114.702855</ele>
        <time>2023-02-12T23:38:42.319Z</time>
      </trkpt>
      <trkpt lat="37.211230" lon="-121.989232">
        <ele>114.969773</ele>
        <time>2023-02-12T23:38:50.325Z</time>
      </trkpt>
      <trkpt lat="37.211153" lon="-121.989319">
        <ele>114.548699</ele>
        <time>2023-02-12T23:39:00.336Z</time>
      </trkpt>
      <trkpt lat="37.211065" lon="-121.989374">
        <ele>114.123464</ele>
        <time>2023-02-12T23:39:09.373Z</time>
      </trkpt>
      <trkpt lat="37.210990" lon="-121.989446">
        <ele>113.715055</ele>
        <time>2023-02-12T23:39:16.391Z</time>
      </trkpt>
      <trkpt lat="37.210905" lon="-121.989482">
        <ele>113.326995</ele>
        <time>2023-02-12T23:39:23.383Z</time>
      </trkpt>
      <trkpt lat="37.210823" lon="-121.989548">
        <ele>112.905644</ele>
        <time>2023-02-12T23:39:29.347Z</time>
      </trkpt>
      <trkpt lat="37.210724" lon="-121.989586">
        <ele>112.457811</ele>
        <time>2023-02-12T23:39:37.328Z</time>
      </trkpt>
      <trkpt lat="37.210628" lon="-121.989606">
        <ele>112.036843</ele>
        <time>2023-02-12T23:39:43.320Z</time>
      </trkpt>
      <trkpt lat="37.210559" lon="-121.989683">
        <ele>111.637503</ele>
        <time>2023-02-12T23:39:52.371Z</time>
      </trkpt>
      <trkpt lat="37.210467" lon="-121.989730">
        <ele>111.207835</ele>
        <time>2023-02-12T23:40:00.323Z</time>
      </trkpt>
      <trkpt lat="37.210366" lon="-121.989749">
        <ele>110.766038</ele>
        <time>2023-02-12T23:40:06.405Z</time>
      </trkpt>
      <trkpt lat="37.210272" lon="-121.989774">
        <ele>110.350377</ele>
        <time>2023-02-12T23:40:13.355Z</time>
      </trkpt>
      <trkpt lat="37.210180" lon="-121.989791">
        <ele>109.948103</ele>
        <time>2023-02-12T23:40:21.311Z</time>
      </trkpt>
      <trkpt lat="37.210095" lon="-121.989829">
        <ele>109.557786</ele>
        <time>2023-02-12T23:40:30.354Z</time>
      </trkpt>
      <trkpt lat="37.210003" lon="-121.989867">
        <ele>109.138818</ele>
        <time>2023-02-12T23:40:39.348Z</time>
      </trkpt>
      <trkpt lat="37.209904" lon="-121.989886">
        <ele>108.705575</ele>
        <time>2023-02-12T23:40:47.380Z</time>
      </trkpt>
      <trkpt lat="37.209809" lon="-121.989860">
        <ele>108.284961</ele>
        <time>2023-02-12T23:40:54.354Z</time>
      </trkpt>
      <trkpt lat="37.209715" lon="-121.989839">
        <ele>107.871935</ele>
        <time>2023-02-12T23:41:04.337Z</time>
      </trkpt>
      <trkpt lat="37.209625" lon="-121.989807">
        <ele>107.467291</ele>
        <time>2023-02-12T23:41:12.407Z</time>
      </trkpt>
      <trkpt lat="37.209531" lon="-121.989800">
        <ele>107.296308</ele>
        <time>2023-02-12T23:41:20.382Z</time>
      </trkpt>
      <trkpt lat="37.209442" lon="-121.989753">
        <ele>107.584086</ele>
        <time>2023-02-12T23:41:28.419Z</time>
      </trkpt>
      <trkpt lat="37.209358" lon="-121.989689">
        <ele>107.876943</ele>
        <time>2023-02-12T23:41:35.409Z</time>
      </trkpt>
      <trkpt lat="37.209266" lon="-121.989634">
        <ele>108.180651</ele>
        <time>2023-02-12T23:41:41.395Z</time>
      </trkpt>
      <trkpt lat="37.209179" lon="-121.989600">
        <ele>108.452231</ele>
        <time>2023-02-12T23:41:48.404Z</time>
      </trkpt>
      <trkpt lat="37.209092" lon="-121.989567">
        <ele>108.723115</ele>
        <time>2023-02-12T23:41:55.406Z</time>
      </trkpt>
      <trkpt lat="37.208996" lon="-121.989515">
        <ele>109.034740</ele>
        <time>2023-02-12T23:42:01.399Z</time>
      </trkpt>
      <trkpt lat="37.208900" lon="-121.989458">
        <ele>109.351254</ele>
        <time>2023-02-12T23:42:07.401Z</time>
      </trkpt>
      <trkpt lat="37.208816" lon="-121.989412">
        <ele>109.624399</ele>
        <time>2023-02-12T23:42:14.392Z</time>
      </trkpt>
      <trkpt lat="37.208725" lon="-121.989388">
        <ele>109.901550</ele>
        <time>2023-02-12T23:42:22.406Z</time>
      </trkpt>
      <trkpt lat="37.208636" lon="-121.989357">
        <ele>110.176839</ele>
        <time>2023-02-12T23:42:31.410Z</time>
      </trkpt>
      <trkpt lat="37.208548" lon="-121.989330">
        <ele>110.446846</ele>
        <time>2023-02-12T23:42:39.380Z</time>
      </trkpt>
      <trkpt lat="37.208461" lon="-121.989302">
        <ele>110.714539</ele>
        <time>2023-02-12T23:42:45.410Z</time>
      </trkpt>
      <trkpt lat="37.208372" lon="-121.989271">
        <ele>110.989828</ele>
        <time>2023-02-12T23:42:51.404Z</time>
      </trkpt>
      <trkpt lat="37.208278" lon="-121.989242">
        <ele>111.278335</ele>
        <time>2023-02-12T23:42:57.376Z</time>
      </trkpt>
      <trkpt lat="37.208186" lon="-121.989210">
        <ele>111.562875</ele>
        <time>2023-02-12T23:43:04.362Z</time>
      </trkpt>
      <trkpt lat="37.208096" lon="-121.989219">
        <ele>111.831976</ele>
        <time>2023-02-12T23:43:11.379Z</time>
      </trkpt>
      <trkpt lat="37.208001" lon="-121.989248">
        <ele>112.123378</ele>
        <time>2023-02-12T23:43:20.381Z</time>
      </trkpt>
      <trkpt lat="37.207894" lon="-121.989256">
        <ele>112.442864</ele>
        <time>2023-02-12T23:43:27.411Z</time>
      </trkpt>
      <trkpt lat="37.207801" lon="-121.989287">
        <ele>112.883581</ele>
        <time>2023-02-12T23:43:36.366Z</time>
      </trkpt>
      <trkpt lat="37.207711" lon="-121.989338">
        <ele>113.446265</ele>
        <time>2023-02-12T23:43:44.407Z</time>
      </trkpt>
      <trkpt lat="37.207626" lon="-121.989389">
        <ele>113.983106</ele>
        <time>2023-02-12T23:43:50.378Z</time>
      </trkpt>
      <trkpt lat="37.207537" lon="-121.989446">
        <ele>114.552446</ele>
        <time>2023-02-12T23:43:58.355Z</time>
      </trkpt>
      <trkpt lat="37.207437" lon="-121.989471">
        <ele>115.133488</ele>
        <time>2023-02-12T23:44:06.319Z</time>
      </trkpt>
      <trkpt lat="37.207348" lon="-121.989510">
        <ele>115.670659</ele>
        <time>2023-02-12T23:44:14.338Z</time>
      </trkpt>
      <trkpt lat="37.207259" lon="-121.989542">
        <ele>116.198216</ele>
        <time>2023-02-12T23:44:22.347Z</time>
      </trkpt>
      <trkpt lat="37.207167" lon="-121.989569">
        <ele>116.736614</ele>
        <time>2023-02-12T23:44:31.360Z</time>
      </trkpt>
      <trkpt lat="37.207064" lon="-121.989548">
        <ele>117.331253</ele>
        <time>2023-02-12T23:44:39.319Z</time>
      </trkpt>
      <trkpt lat="37.206969" lon="-121.989521">
        <ele>117.886311</ele>
        <time>2023-02-12T23:44:46.338Z</time>
      </trkpt>
      <trkpt lat="37.206874" lon="-121.989515">
        <ele>118.428358</ele>
        <time>2023-02-12T23:44:54.336Z</time>
      </trkpt>
      <trkpt lat="37.206781" lon="-121.989481">
        <ele>118.980333</ele>
        <time>2023-02-12T23:45:00.341Z</time>
      </trkpt>
      <trkpt lat="37.206685" lon="-121.989466">
        <ele>119.531613</ele>
        <time>2023-02-12T23:45:06.363Z</time>
      </trkpt>
      <trkpt lat="37.206594" lon="-121.989446">
        <ele>120.058066</ele>
        <time>2023-02-12T23:45:15.326Z</time>
      </trkpt>
      <trkpt lat="37.206499" lon="-121.989475">
        <ele>120.615199</ele>
        <time>2023-02-12T23:45:25.343Z</time>
      </trkpt>
      <trkpt lat="37.206412" lon="-121.989529">
        <ele>121.168245</ele>
        <time>2023-02-12T23:45:34.366Z</time>
      </trkpt>
      <trkpt lat="37.206341" lon="-121.989615">
        <ele>121.730432</ele>
        <time>2023-02-12T23:45:45.351Z</time>
      </trkpt>
      <trkpt lat="37.206264" lon="-121.989678">
        <ele>122.254164</ele>
        <time>2023-02-12T23:45:55.360Z</time>
      </trkpt>
      <trkpt lat="37.206196" lon="-121.989766">
        <ele>122.810698</ele>
        <time>2023-02-12T23:46:07.351Z</time>
      </trkpt>
      <trkpt lat="37.206111" lon="-121.989839">
        <ele>123.596188</ele>
        <time>2023-02-12T23:46:17.359Z</time>
      </trkpt>
      <trkpt lat="37.206039" lon="-121.989913">
        <ele>124.305894</ele>
        <time>2023-02-12T23:46:26.365Z</time>
      </trkpt>
      <trkpt lat="37.205976" lon="-121.990001">
        <ele>125.024710</ele>
        <time>2023-02-12T23:46:35.362Z</time>
      </trkpt>
      <trkpt lat="37.205947" lon="-121.990124">
        <ele>125.803982</ele>
        <time>2023-02-12T23:47:00.344Z</time>
      </trkpt>
      <trkpt lat="37.205959" lon="-121.990243">
        <ele>126.532674</ele>
        <time>2023-02-12T23:47:06.348Z</time>
      </trkpt>
      <trkpt lat="37.205957" lon="-121.990365">
        <ele>127.273976</ele>
        <time>2023-02-12T23:47:14.362Z</time>
      </trkpt>
      <trkpt lat="37.205928" lon="-121.990473">
        <ele>127.966355</ele>
        <time>2023-02-12T23:47:22.363Z</time>
      </trkpt>
      <trkpt lat="37.205901" lon="-121.990588">
        <ele>128.694697</ele>
        <time>2023-02-12T23:47:31.369Z</time>
      </trkpt>
      <trkpt lat="37.205874" lon="-121.990706">
        <ele>129.440538</ele>
        <time>2023-02-12T23:47:38.356Z</time>
      </trkpt>
      <trkpt lat="37.205785" lon="-121.990756">
        <ele>130.184234</ele>
        <time>2023-02-12T23:47:45.316Z</time>
      </trkpt>
      <trkpt lat="37.205712" lon="-121.990836">
        <ele>130.923300</ele>
        <time>2023-02-12T23:47:53.335Z</time>
      </trkpt>
      <trkpt lat="37.205635" lon="-121.990895">
        <ele>131.611340</ele>
        <time>2023-02-12T23:47:59.331Z</time>
      </trkpt>
      <trkpt lat="37.205543" lon="-121.990947">
        <ele>132.380887</ele>
        <time>2023-02-12T23:48:06.322Z</time>
      </trkpt>
      <trkpt lat="37.205457" lon="-121.990993">
        <ele>133.093888</ele>
        <time>2023-02-12T23:48:14.347Z</time>
      </trkpt>
      <trkpt lat="37.205376" lon="-121.991061">
        <ele>133.837091</ele>
        <time>2023-02-12T23:48:23.338Z</time>
      </trkpt>
      <trkpt lat="37.205312" lon="-121.991145">
        <ele>134.543278</ele>
        <time>2023-02-12T23:48:30.329Z</time>
      </trkpt>
      <trkpt lat="37.205212" lon="-121.991177">
        <ele>135.330400</ele>
        <time>2023-02-12T23:48:39.354Z</time>
      </trkpt>
      <trkpt lat="37.205121" lon="-121.991189">
        <ele>136.028310</ele>
        <time>2023-02-12T23:48:46.341Z</time>
      </trkpt>
      <trkpt lat="37.205031" lon="-121.991186">
        <ele>136.544982</ele>
        <time>2023-02-12T23:48:53.335Z</time>
      </trkpt>
      <trkpt lat="37.204933" lon="-121.991182">
        <ele>136.607512</ele>
        <time>2023-02-12T23:49:01.331Z</time>
      </trkpt>
      <trkpt lat="37.204837" lon="-121.991178">
        <ele>136.668767</ele>
        <time>2023-02-12T23:49:11.337Z</time>
      </trkpt>
      <trkpt lat="37.204739" lon="-121.991181">
        <ele>136.731282</ele>
        <time>2023-02-12T23:49:19.312Z</time>
      </trkpt>
      <trkpt lat="37.204641" lon="-121.991201">
        <ele>136.794599</ele>
        <time>2023-02-12T23:49:27.345Z</time>
      </trkpt>
      <trkpt lat="37.204547" lon="-121.991225">
        <ele>136.855771</ele>
        <time>2023-02-12T23:49:35.353Z</time>
      </trkpt>
      <trkpt lat="37.204444" lon="-121.991259">
        <ele>136.923689</ele>
        <time>2023-02-12T23:49:43.326Z</time>
      </trkpt>
      <trkpt lat="37.204351" lon="-121.991289">
        <ele>136.984923</ele>
        <time>2023-02-12T23:49:50.379Z</time>
      </trkpt>
      <trkpt lat="37.204264" lon="-121.991321">
        <ele>137.042736</ele>
        <time>2023-02-12T23:49:58.354Z</time>
      </trkpt>
      <trkpt lat="37.204170" lon="-121.991315">
        <ele>137.102759</ele>
        <time>2023-02-12T23:50:06.374Z</time>
      </trkpt>
      <trkpt lat="37.204084" lon="-121.991274">
        <ele>137.161424</ele>
        <time>2023-02-12T23:50:13.359Z</time>
      </trkpt>
      <trkpt lat="37.203997" lon="-121.991227">
        <ele>137.221824</ele>
        <time>2023-02-12T23:50:20.367Z</time>
      </trkpt>
      <trkpt lat="37.203907" lon="-121.991186">
        <ele>137.282880</ele>
        <time>2023-02-12T23:50:28.370Z</time>
      </trkpt>
      <trkpt lat="37.203810" lon="-121.991169">
        <ele>137.345338</ele>
        <time>2023-02-12T23:50:37.341Z</time>
      </trkpt>
      <trkpt lat="37.203713" lon="-121.991179">
        <ele>137.407405</ele>
        <time>2023-02-12T23:50:46.360Z</time>
      </trkpt>
      <trkpt lat="37.203630" lon="-121.991119">
        <ele>137.468483</ele>
        <time>2023-02-12T23:50:54.382Z</time>
      </trkpt>
      <trkpt lat="37.203562" lon="-121.991042">
        <ele>137.526880</ele>
        <time>2023-02-12T23:51:02.351Z</time>
      </trkpt>
      <trkpt lat="37.203489" lon="-121.990968">
        <ele>137.586714</ele>
        <time>2023-02-12T23:51:10.357Z</time>
      </trkpt>
      <trkpt lat="37.203427" lon="-121.990875">
        <ele>137.648315</ele>
        <time>2023-02-12T23:51:20.362Z</time>
      </trkpt>
      <trkpt lat="37.203343" lon="-121.990823">
        <ele>138.122228</ele>
        <time>2023-02-12T23:51:29.374Z</time>
      </trkpt>
      <trkpt lat="37.203250" lon="-121.990852">
        <ele>138.985775</ele>
        <time>2023-02-12T23:51:40.327Z</time>
      </trkpt>
      <trkpt lat="37.203154" lon="-121.990872">
        <ele>139.862724</ele>
        <time>2023-02-12T23:51:50.362Z</time>
      </trkpt>
      <trkpt lat="37.203064" lon="-121.990899">
        <ele>140.696607</ele>
        <time>2023-02-12T23:51:56.349Z</time>
      </trkpt>
      <trkpt lat="37.202970" lon="-121.990922">
        <ele>141.559640</ele>
        <time>2023-02-12T23:52:02.331Z</time>
      </trkpt>
      <trkpt lat="37.202873" lon="-121.990918">
        <ele>142.434243</ele>
        <time>2023-02-12T23:52:11.343Z</time>
      </trkpt>
      <trkpt lat="37.202780" lon="-121.990921">
        <ele>143.272604</ele>
        <time>2023-02-12T23:52:20.362Z</time>
      </trkpt>
      <trkpt lat="37.202683" lon="-121.990904">
        <ele>144.155211</ele>
        <time>2023-02-12T23:52:28.358Z</time>
      </trkpt>
      <trkpt lat="37.202582" lon="-121.990872">
        <ele>145.093924</ele>
        <time>2023-02-12T23:52:36.343Z</time>
      </trkpt>
      <trkpt lat="37.202483" lon="-121.990839">
        <ele>146.016987</ele>
        <time>2023-02-12T23:52:45.368Z</time>
      </trkpt>
      <trkpt lat="37.202399" lon="-121.990785">
        <ele>146.867431</ele>
        <time>2023-02-12T23:52:54.373Z</time>
      </trkpt>
      <trkpt lat="37.202328" lon="-121.990695">
        <ele>147.776663</ele>
        <time>2023-02-12T23:53:04.359Z</time>
      </trkpt>
      <trkpt lat="37.202248" lon="-121.990621">
        <ele>148.672138</ele>
        <time>2023-02-12T23:53:12.381Z</time>
      </trkpt>
      <trkpt lat="37.202215" lon="-121.990511">
        <ele>149.515849</ele>
        <time>2023-02-12T23:53:21.369Z</time>
      </trkpt>
      <trkpt lat="37.202205" lon="-121.990388">
        <ele>150.403311</ele>
        <time>2023-02-12T23:53:30.362Z</time>
      </trkpt>
      <trkpt lat="37.202153" lon="-121.990285">
        <ele>151.278631</ele>
        <time>2023-02-12T23:53:38.361Z</time>
      </trkpt>
      <trkpt lat="37.202113" lon="-121.990167">
        <ele>152.199133</ele>
        <time>2023-02-12T23:53:46.377Z</time>
      </trkpt>
      <trkpt lat="37.202096" lon="-121.990053">
        <ele>153.031626</ele>
        <time>2023-02-12T23:53:54.374Z</time>
      </trkpt>
      <trkpt lat="37.202077" lon="-121.989938">
        <ele>153.874651</ele>
        <time>2023-02-12T23:54:05.389Z</time>
      </trkpt>
      <trkpt lat="37.202035" lon="-121.989825">
        <ele>154.805377</ele>
        <time>2023-02-12T23:54:14.362Z</time>
      </trkpt>
      <trkpt lat="37.201987" lon="-121.989720">
        <ele>155.709403</ele>
        <time>2023-02-12T23:54:25.368Z</time>
      </trkpt>
      <trkpt lat="37.201968" lon="-121.989609">
        <ele>156.557198</ele>
        <time>2023-02-12T23:54:32.348Z</time>
      </trkpt>
      <trkpt lat="37.201932" lon="-121.989505">
        <ele>157.403966</ele>
        <time>2023-02-12T23:54:44.366Z</time>
      </trkpt>
      <trkpt lat="37.201900" lon="-121.989391">
        <ele>158.306556</ele>
        <time>2023-02-12T23:54:53.374Z</time>
      </trkpt>
      <trkpt lat="37.201875" lon="-121.989279">
        <ele>159.175116</ele>
        <time>2023-02-12T23:55:01.350Z</time>
      </trkpt>
      <trkpt lat="37.201854" lon="-121.989164">
        <ele>160.056136</ele>
        <time>2023-02-12T23:55:12.348Z</time>
      </trkpt>
      <trkpt lat="37.201835" lon="-121.989049">
        <ele>160.933158</ele>
        <time>2023-02-12T23:55:21.340Z</time>
      </trkpt>
      <trkpt lat="37.201796" lon="-121.988944">
        <ele>161.798287</ele>
        <time>2023-02-12T23:55:31.339Z</time>
      </trkpt>
      <trkpt lat="37.201746" lon="-121.988849">
        <ele>162.648564</ele>
        <time>2023-02-12T23:55:38.379Z</time>
      </trkpt>
      <trkpt lat="37.201718" lon="-121.988735">
        <ele>163.539394</ele>
        <time>2023-02-12T23:55:47.347Z</time>
      </trkpt>
      <trkpt lat="37.201681" lon="-121.988622">
        <ele>164.451719</ele>
        <time>2023-02-12T23:55:58.370Z</time>
      </trkpt>
      <trkpt lat="37.201668" lon="-121.988494">
        <ele>165.415277</ele>
        <time>2023-02-12T23:56:09.359Z</time>
      </trkpt>
      <trkpt lat="37.201652" lon="-121.988380">
        <ele>166.279669</ele>
        <time>2023-02-12T23:56:17.375Z</time>
      </trkpt>
      <trkpt lat="37.201650" lon="-121.988258">
        <ele>167.190877</ele>
        <time>2023-02-12T23:56:37.350Z</time>
      </trkpt>
      <trkpt lat="37.201615" lon="-121.988148">
        <ele>168.075399</ele>
        <time>2023-02-12T23:56:47.368Z</time>
      </trkpt>
      <trkpt lat="37.201530" lon="-121.988212">
        <ele>169.004599</ele>
        <time>2023-02-12T23:57:00.328Z</time>
      </trkpt>
      <trkpt lat="37.201499" lon="-121.988320">
        <ele>169.861842</ele>
        <time>2023-02-12T23:57:07.356Z</time>
      </trkpt>
      <trkpt lat="37.201500" lon="-121.988433">
        <ele>170.705705</ele>
        <time>2023-02-12T23:57:15.329Z</time>
      </trkpt>
      <trkpt lat="37.201496" lon="-121.988550">
        <ele>170.711642</ele>
        <time>2023-02-12T23:57:25.330Z</time>
      </trkpt>
      <trkpt lat="37.201493" lon="-121.988671">
        <ele>170.672566</ele>
        <time>2023-02-12T23:57:35.338Z</time>
      </trkpt>
      <trkpt lat="37.201500" lon="-121.988791">
        <ele>170.633728</ele>
        <time>2023-02-12T23:57:44.351Z</time>
      </trkpt>
      <trkpt lat="37.201495" lon="-121.988912">
        <ele>170.594619</ele>
        <time>2023-02-12T23:57:53.343Z</time>
      </trkpt>
      <trkpt lat="37.201482" lon="-121.989027">
        <ele>170.557126</ele>
        <time>2023-02-12T23:58:02.335Z</time>
      </trkpt>
      <trkpt lat="37.201459" lon="-121.989242">
        <ele>170.487105</ele>
        <time>2023-02-12T23:58:49.384Z</time>
      </trkpt>
      <trkpt lat="37.201459" lon="-121.989360">
        <ele>170.449016</ele>
        <time>2023-02-12T23:58:58.367Z</time>
      </trkpt>
      <trkpt lat="37.201451" lon="-121.989481">
        <ele>170.409825</ele>
        <time>2023-02-12T23:59:06.373Z</time>
      </trkpt>
      <trkpt lat="37.201434" lon="-121.989596">
        <ele>170.372071</ele>
        <time>2023-02-12T23:59:15.343Z</time>
      </trkpt>
      <trkpt lat="37.201422" lon="-121.989716">
        <ele>170.333033</ele>
        <time>2023-02-12T23:59:23.377Z</time>
      </trkpt>
      <trkpt lat="37.201455" lon="-121.989610">
        <ele>170.296297</ele>
        <time>2023-02-13T00:06:54.385Z</time>
      </trkpt>
      <trkpt lat="37.201460" lon="-121.989488">
        <ele>170.256865</ele>
        <time>2023-02-13T00:07:03.389Z</time>
      </trkpt>
      <trkpt lat="37.201471" lon="-121.989368">
        <ele>170.217876</ele>
        <time>2023-02-13T00:07:12.346Z</time>
      </trkpt>
      <trkpt lat="37.201476" lon="-121.989249">
        <ele>170.179411</ele>
        <time>2023-02-13T00:07:21.379Z</time>
      </trkpt>
      <trkpt lat="37.201490" lon="-121.989130">
        <ele>170.140583</ele>
        <time>2023-02-13T00:07:30.386Z</time>
      </trkpt>
      <trkpt lat="37.201490" lon="-121.989006">
        <ele>170.100558</ele>
        <time>2023-02-13T00:07:38.337Z</time>
      </trkpt>
      <trkpt lat="37.201498" lon="-121.988889">
        <ele>170.062653</ele>
        <time>2023-02-13T00:07:47.351Z</time>
      </trkpt>
      <trkpt lat="37.201512" lon="-121.988775">
        <ele>170.025421</ele>
        <time>2023-02-13T00:07:56.373Z</time>
      </trkpt>
      <trkpt lat="37.201510" lon="-121.988653">
        <ele>169.159748</ele>
        <time>2023-02-13T00:08:04.349Z</time>
      </trkpt>
      <trkpt lat="37.201526" lon="-121.988539">
        <ele>168.178369</ele>
        <time>2023-02-13T00:08:16.394Z</time>
      </trkpt>
      <trkpt lat="37.201544" lon="-121.988427">
        <ele>167.209699</ele>
        <time>2023-02-13T00:08:27.333Z</time>
      </trkpt>
      <trkpt lat="37.201520" lon="-121.988307">
        <ele>166.160761</ele>
        <time>2023-02-13T00:08:36.353Z</time>
      </trkpt>
      <trkpt lat="37.201477" lon="-121.988192">
        <ele>165.083710</ele>
        <time>2023-02-13T00:08:45.376Z</time>
      </trkpt>
      <trkpt lat="37.201531" lon="-121.988094">
        <ele>164.073434</ele>
        <time>2023-02-13T00:08:56.354Z</time>
      </trkpt>
      <trkpt lat="37.201605" lon="-121.988168">
        <ele>163.066469</ele>
        <time>2023-02-13T00:09:04.367Z</time>
      </trkpt>
      <trkpt lat="37.201675" lon="-121.988245">
        <ele>162.075872</ele>
        <time>2023-02-13T00:09:14.384Z</time>
      </trkpt>
      <trkpt lat="37.201689" lon="-121.988369">
        <ele>161.014097</ele>
        <time>2023-02-13T00:09:26.377Z</time>
      </trkpt>
      <trkpt lat="37.201710" lon="-121.988489">
        <ele>159.972476</ele>
        <time>2023-02-13T00:09:36.372Z</time>
      </trkpt>
      <trkpt lat="37.201737" lon="-121.988600">
        <ele>158.988519</ele>
        <time>2023-02-13T00:09:45.386Z</time>
      </trkpt>
      <trkpt lat="37.201768" lon="-121.988714">
        <ele>157.967260</ele>
        <time>2023-02-13T00:09:54.369Z</time>
      </trkpt>
      <trkpt lat="37.201796" lon="-121.988828">
        <ele>156.955867</ele>
        <time>2023-02-13T00:10:03.367Z</time>
      </trkpt>
      <trkpt lat="37.201828" lon="-121.988943">
        <ele>155.923121</ele>
        <time>2023-02-13T00:10:11.367Z</time>
      </trkpt>
      <trkpt lat="37.201847" lon="-121.989065">
        <ele>154.869226</ele>
        <time>2023-02-13T00:10:21.347Z</time>
      </trkpt>
      <trkpt lat="37.201883" lon="-121.989173">
        <ele>153.876663</ele>
        <time>2023-02-13T00:10:27.365Z</time>
      </trkpt>
      <trkpt lat="37.201910" lon="-121.989283">
        <ele>152.900813</ele>
        <time>2023-02-13T00:10:35.383Z</time>
      </trkpt>
      <trkpt lat="37.201946" lon="-121.989391">
        <ele>151.908251</ele>
        <time>2023-02-13T00:10:43.381Z</time>
      </trkpt>
      <trkpt lat="37.201968" lon="-121.989514">
        <ele>150.846458</ele>
        <time>2023-02-13T00:10:50.373Z</time>
      </trkpt>
      <trkpt lat="37.202004" lon="-121.989620">
        <ele>150.065282</ele>
        <time>2023-02-13T00:10:58.379Z</time>
      </trkpt>
      <trkpt lat="37.202043" lon="-121.989730">
        <ele>149.249047</ele>
        <time>2023-02-13T00:11:06.367Z</time>
      </trkpt>
      <trkpt lat="37.202055" lon="-121.989853">
        <ele>148.408991</ele>
        <time>2023-02-13T00:11:16.413Z</time>
      </trkpt>
      <trkpt lat="37.202092" lon="-121.989965">
        <ele>147.587021</ele>
        <time>2023-02-13T00:11:23.433Z</time>
      </trkpt>
      <trkpt lat="37.202128" lon="-121.990076">
        <ele>146.774558</ele>
        <time>2023-02-13T00:11:31.432Z</time>
      </trkpt>
      <trkpt lat="37.202155" lon="-121.990186">
        <ele>145.994258</ele>
        <time>2023-02-13T00:11:39.396Z</time>
      </trkpt>
      <trkpt lat="37.202185" lon="-121.990294">
        <ele>145.218875</ele>
        <time>2023-02-13T00:11:46.387Z</time>
      </trkpt>
      <trkpt lat="37.202204" lon="-121.990407">
        <ele>144.435960</ele>
        <time>2023-02-13T00:11:55.363Z</time>
      </trkpt>
      <trkpt lat="37.202232" lon="-121.990517">
        <ele>143.653112</ele>
        <time>2023-02-13T00:12:03.379Z</time>
      </trkpt>
      <trkpt lat="37.202291" lon="-121.990616">
        <ele>142.814923</ele>
        <time>2023-02-13T00:12:13.369Z</time>
      </trkpt>
      <trkpt lat="37.202361" lon="-121.990688">
        <ele>142.044746</ele>
        <time>2023-02-13T00:12:22.415Z</time>
      </trkpt>
      <trkpt lat="37.202449" lon="-121.990732">
        <ele>141.238571</ele>
        <time>2023-02-13T00:12:30.349Z</time>
      </trkpt>
      <trkpt lat="37.202531" lon="-121.990784">
        <ele>140.456697</ele>
        <time>2023-02-13T00:12:40.376Z</time>
      </trkpt>
      <trkpt lat="37.202620" lon="-121.990837">
        <ele>139.618330</ele>
        <time>2023-02-13T00:12:52.371Z</time>
      </trkpt>
      <trkpt lat="37.202704" lon="-121.990879">
        <ele>138.848800</ele>
        <time>2023-02-13T00:12:59.388Z</time>
      </trkpt>
      <trkpt lat="37.202796" lon="-121.990889">
        <ele>138.062861</ele>
        <time>2023-02-13T00:13:07.376Z</time>
      </trkpt>
      <trkpt lat="37.202891" lon="-121.990901">
        <ele>137.250237</ele>
        <time>2023-02-13T00:13:15.400Z</time>
      </trkpt>
      <trkpt lat="37.202982" lon="-121.990883">
        <ele>136.466185</ele>
        <time>2023-02-13T00:13:22.368Z</time>
      </trkpt>
      <trkpt lat="37.203075" lon="-121.990879">
        <ele>135.674200</ele>
        <time>2023-02-13T00:13:29.381Z</time>
      </trkpt>
      <trkpt lat="37.203168" lon="-121.990857">
        <ele>135.531346</ele>
        <time>2023-02-13T00:13:36.362Z</time>
      </trkpt>
      <trkpt lat="37.203266" lon="-121.990819">
        <ele>135.487921</ele>
        <time>2023-02-13T00:13:43.389Z</time>
      </trkpt>
      <trkpt lat="37.203358" lon="-121.990784">
        <ele>135.447221</ele>
        <time>2023-02-13T00:13:50.383Z</time>
      </trkpt>
      <trkpt lat="37.203437" lon="-121.990848">
        <ele>135.407415</ele>
        <time>2023-02-13T00:14:00.389Z</time>
      </trkpt>
      <trkpt lat="37.203490" lon="-121.990943">
        <ele>135.368302</ele>
        <time>2023-02-13T00:14:07.386Z</time>
      </trkpt>
      <trkpt lat="37.203551" lon="-121.991031">
        <ele>135.328962</ele>
        <time>2023-02-13T00:14:15.385Z</time>
      </trkpt>
      <trkpt lat="37.203628" lon="-121.991116">
        <ele>135.285553</ele>
        <time>2023-02-13T00:14:23.390Z</time>
      </trkpt>
      <trkpt lat="37.203707" lon="-121.991183">
        <ele>135.245190</ele>
        <time>2023-02-13T00:14:31.403Z</time>
      </trkpt>
      <trkpt lat="37.203797" lon="-121.991175">
        <ele>135.206990</ele>
        <time>2023-02-13T00:14:40.399Z</time>
      </trkpt>
      <trkpt lat="37.203891" lon="-121.991171">
        <ele>135.167170</ele>
        <time>2023-02-13T00:14:48.404Z</time>
      </trkpt>
      <trkpt lat="37.203986" lon="-121.991215">
        <ele>135.124299</ele>
        <time>2023-02-13T00:14:58.353Z</time>
      </trkpt>
      <trkpt lat="37.204080" lon="-121.991251">
        <ele>135.082691</ele>
        <time>2023-02-13T00:15:06.388Z</time>
      </trkpt>
      <trkpt lat="37.204176" lon="-121.991282">
        <ele>135.040723</ele>
        <time>2023-02-13T00:15:14.361Z</time>
      </trkpt>
      <trkpt lat="37.204273" lon="-121.991268">
        <ele>134.999385</ele>
        <time>2023-02-13T00:15:22.357Z</time>
      </trkpt>
      <trkpt lat="37.204371" lon="-121.991245">
        <ele>134.957175</ele>
        <time>2023-02-13T00:15:32.378Z</time>
      </trkpt>
      <trkpt lat="37.204471" lon="-121.991226">
        <ele>134.914355</ele>
        <time>2023-02-13T00:15:52.367Z</time>
      </trkpt>
      <trkpt lat="37.204564" lon="-121.991247">
        <ele>134.874349</ele>
        <time>2023-02-13T00:16:00.391Z</time>
      </trkpt>
      <trkpt lat="37.204692" lon="-121.991183">
        <ele>134.816017</ele>
        <time>2023-02-13T00:17:39.365Z</time>
      </trkpt>
      <trkpt lat="37.204782" lon="-121.991157">
        <ele>134.639760</ele>
        <time>2023-02-13T00:17:48.354Z</time>
      </trkpt>
      <trkpt lat="37.204879" lon="-121.991156">
        <ele>134.394633</ele>
        <time>2023-02-13T00:17:57.352Z</time>
      </trkpt>
      <trkpt lat="37.204973" lon="-121.991171">
        <ele>134.155185</ele>
        <time>2023-02-13T00:18:05.353Z</time>
      </trkpt>
      <trkpt lat="37.205067" lon="-121.991167">
        <ele>133.917511</ele>
        <time>2023-02-13T00:18:13.388Z</time>
      </trkpt>
      <trkpt lat="37.205164" lon="-121.991163">
        <ele>133.672260</ele>
        <time>2023-02-13T00:18:21.365Z</time>
      </trkpt>
      <trkpt lat="37.205256" lon="-121.991151">
        <ele>133.438525</ele>
        <time>2023-02-13T00:18:30.359Z</time>
      </trkpt>
      <trkpt lat="37.205351" lon="-121.991121">
        <ele>133.190983</ele>
        <time>2023-02-13T00:18:39.376Z</time>
      </trkpt>
      <trkpt lat="37.205434" lon="-121.991055">
        <ele>132.942716</ele>
        <time>2023-02-13T00:18:46.378Z</time>
      </trkpt>
      <trkpt lat="37.205518" lon="-121.990987">
        <ele>132.690151</ele>
        <time>2023-02-13T00:18:54.388Z</time>
      </trkpt>
      <trkpt lat="37.205585" lon="-121.990909">
        <ele>132.459259</ele>
        <time>2023-02-13T00:19:02.378Z</time>
      </trkpt>
      <trkpt lat="37.205672" lon="-121.990857">
        <ele>132.215770</ele>
        <time>2023-02-13T00:19:09.401Z</time>
      </trkpt>
      <trkpt lat="37.205756" lon="-121.990794">
        <ele>131.968514</ele>
        <time>2023-02-13T00:19:17.364Z</time>
      </trkpt>
      <trkpt lat="37.205833" lon="-121.990710">
        <ele>131.710748</ele>
        <time>2023-02-13T00:19:26.409Z</time>
      </trkpt>
      <trkpt lat="37.205875" lon="-121.990609">
        <ele>131.481429</ele>
        <time>2023-02-13T00:19:31.436Z</time>
      </trkpt>
      <trkpt lat="37.205904" lon="-121.990497">
        <ele>131.244397</ele>
        <time>2023-02-13T00:19:38.399Z</time>
      </trkpt>
      <trkpt lat="37.205944" lon="-121.990394">
        <ele>131.013762</ele>
        <time>2023-02-13T00:19:46.390Z</time>
      </trkpt>
      <trkpt lat="37.205953" lon="-121.990271">
        <ele>130.765161</ele>
        <time>2023-02-13T00:19:57.367Z</time>
      </trkpt>
      <trkpt lat="37.205968" lon="-121.990156">
        <ele>130.530621</ele>
        <time>2023-02-13T00:20:05.398Z</time>
      </trkpt>
      <trkpt lat="37.205987" lon="-121.990039">
        <ele>130.290294</ele>
        <time>2023-02-13T00:20:13.358Z</time>
      </trkpt>
      <trkpt lat="37.206043" lon="-121.989941">
        <ele>129.473781</ele>
        <time>2023-02-13T00:20:25.369Z</time>
      </trkpt>
      <trkpt lat="37.206101" lon="-121.989853">
        <ele>128.621167</ele>
        <time>2023-02-13T00:20:34.388Z</time>
      </trkpt>
      <trkpt lat="37.206164" lon="-121.989771">
        <ele>127.770723</ele>
        <time>2023-02-13T00:20:45.402Z</time>
      </trkpt>
      <trkpt lat="37.206242" lon="-121.989684">
        <ele>126.792917</ele>
        <time>2023-02-13T00:20:57.402Z</time>
      </trkpt>
      <trkpt lat="37.206315" lon="-121.989614">
        <ele>125.932057</ele>
        <time>2023-02-13T00:21:06.397Z</time>
      </trkpt>
      <trkpt lat="37.206397" lon="-121.989548">
        <ele>125.019206</ele>
        <time>2023-02-13T00:21:17.402Z</time>
      </trkpt>
      <trkpt lat="37.206484" lon="-121.989505">
        <ele>124.142946</ele>
        <time>2023-02-13T00:21:28.412Z</time>
      </trkpt>
      <trkpt lat="37.206568" lon="-121.989462">
        <ele>123.292785</ele>
        <time>2023-02-13T00:21:37.357Z</time>
      </trkpt>
      <trkpt lat="37.206660" lon="-121.989435">
        <ele>122.407325</ele>
        <time>2023-02-13T00:21:49.404Z</time>
      </trkpt>
      <trkpt lat="37.206750" lon="-121.989465">
        <ele>121.534631</ele>
        <time>2023-02-13T00:21:58.377Z</time>
      </trkpt>
      <trkpt lat="37.206852" lon="-121.989478">
        <ele>120.573780</ele>
        <time>2023-02-13T00:22:06.378Z</time>
      </trkpt>
      <trkpt lat="37.206947" lon="-121.989515">
        <ele>119.641593</ele>
        <time>2023-02-13T00:22:14.393Z</time>
      </trkpt>
      <trkpt lat="37.207040" lon="-121.989527">
        <ele>118.765412</ele>
        <time>2023-02-13T00:22:21.405Z</time>
      </trkpt>
      <trkpt lat="37.207146" lon="-121.989519">
        <ele>117.770192</ele>
        <time>2023-02-13T00:22:35.378Z</time>
      </trkpt>
      <trkpt lat="37.207243" lon="-121.989485">
        <ele>116.826353</ele>
        <time>2023-02-13T00:22:39.393Z</time>
      </trkpt>
      <trkpt lat="37.207334" lon="-121.989471">
        <ele>115.967128</ele>
        <time>2023-02-13T00:22:45.384Z</time>
      </trkpt>
      <trkpt lat="37.207427" lon="-121.989432">
        <ele>115.048208</ele>
        <time>2023-02-13T00:22:52.379Z</time>
      </trkpt>
      <trkpt lat="37.207522" lon="-121.989387">
        <ele>114.096619</ele>
        <time>2023-02-13T00:22:59.366Z</time>
      </trkpt>
      <trkpt lat="37.207610" lon="-121.989354">
        <ele>113.370245</ele>
        <time>2023-02-13T00:23:06.399Z</time>
      </trkpt>
      <trkpt lat="37.207696" lon="-121.989315">
        <ele>113.204051</ele>
        <time>2023-02-13T00:23:14.411Z</time>
      </trkpt>
      <trkpt lat="37.207784" lon="-121.989282">
        <ele>113.037124</ele>
        <time>2023-02-13T00:23:24.399Z</time>
      </trkpt>
      <trkpt lat="37.207877" lon="-121.989245">
        <ele>112.859808</ele>
        <time>2023-02-13T00:23:32.398Z</time>
      </trkpt>
      <trkpt lat="37.207976" lon="-121.989245">
        <ele>112.679869</ele>
        <time>2023-02-13T00:23:39.402Z</time>
      </trkpt>
      <trkpt lat="37.208070" lon="-121.989255">
        <ele>112.508405</ele>
        <time>2023-02-13T00:23:48.390Z</time>
      </trkpt>
      <trkpt lat="37.208165" lon="-121.989235">
        <ele>112.333326</ele>
        <time>2023-02-13T00:23:57.392Z</time>
      </trkpt>
      <trkpt lat="37.208262" lon="-121.989233">
        <ele>112.156998</ele>
        <time>2023-02-13T00:24:06.386Z</time>
      </trkpt>
      <trkpt lat="37.208367" lon="-121.989226">
        <ele>111.965885</ele>
        <time>2023-02-13T00:24:19.392Z</time>
      </trkpt>
      <trkpt lat="37.208457" lon="-121.989272">
        <ele>111.789270</ele>
        <time>2023-02-13T00:24:24.408Z</time>
      </trkpt>
      <trkpt lat="37.208553" lon="-121.989287">
        <ele>111.613438</ele>
        <time>2023-02-13T00:24:26.378Z</time>
      </trkpt>
      <trkpt lat="37.208656" lon="-121.989279">
        <ele>111.425871</ele>
        <time>2023-02-13T00:24:31.406Z</time>
      </trkpt>
      <trkpt lat="37.208745" lon="-121.989290">
        <ele>111.263326</ele>
        <time>2023-02-13T00:24:38.393Z</time>
      </trkpt>
      <trkpt lat="37.208847" lon="-121.989309">
        <ele>111.075905</ele>
        <time>2023-02-13T00:24:45.396Z</time>
      </trkpt>
      <trkpt lat="37.208936" lon="-121.989348">
        <ele>110.904573</ele>
        <time>2023-02-13T00:24:52.392Z</time>
      </trkpt>
      <trkpt lat="37.209022" lon="-121.989398">
        <ele>110.732318</ele>
        <time>2023-02-13T00:25:01.373Z</time>
      </trkpt>
      <trkpt lat="37.209110" lon="-121.989424">
        <ele>110.568004</ele>
        <time>2023-02-13T00:25:10.397Z</time>
      </trkpt>
      <trkpt lat="37.209204" lon="-121.989463">
        <ele>110.388067</ele>
        <time>2023-02-13T00:25:20.414Z</time>
      </trkpt>
      <trkpt lat="37.209293" lon="-121.989494">
        <ele>110.220194</ele>
        <time>2023-02-13T00:25:30.376Z</time>
      </trkpt>
      <trkpt lat="37.209392" lon="-121.989524">
        <ele>109.818106</ele>
        <time>2023-02-13T00:25:37.399Z</time>
      </trkpt>
      <trkpt lat="37.209487" lon="-121.989548">
        <ele>109.253312</ele>
        <time>2023-02-13T00:25:42.393Z</time>
      </trkpt>
      <trkpt lat="37.209591" lon="-121.989588">
        <ele>108.619357</ele>
        <time>2023-02-13T00:25:49.367Z</time>
      </trkpt>
      <trkpt lat="37.209676" lon="-121.989629">
        <ele>108.088644</ele>
        <time>2023-02-13T00:25:55.370Z</time>
      </trkpt>
      <trkpt lat="37.209767" lon="-121.989661">
        <ele>107.537852</ele>
        <time>2023-02-13T00:26:03.360Z</time>
      </trkpt>
      <trkpt lat="37.209860" lon="-121.989688">
        <ele>106.981510</ele>
        <time>2023-02-13T00:26:10.366Z</time>
      </trkpt>
      <trkpt lat="37.209951" lon="-121.989714">
        <ele>106.437567</ele>
        <time>2023-02-13T00:26:18.357Z</time>
      </trkpt>
      <trkpt lat="37.210044" lon="-121.989710">
        <ele>105.895208</ele>
        <time>2023-02-13T00:26:25.399Z</time>
      </trkpt>
      <trkpt lat="37.210138" lon="-121.989715">
        <ele>105.346846</ele>
        <time>2023-02-13T00:26:32.401Z</time>
      </trkpt>
      <trkpt lat="37.210227" lon="-121.989693">
        <ele>104.818162</ele>
        <time>2023-02-13T00:26:38.402Z</time>
      </trkpt>
      <trkpt lat="37.210318" lon="-121.989699">
        <ele>104.287047</ele>
        <time>2023-02-13T00:26:46.400Z</time>
      </trkpt>
      <trkpt lat="37.210409" lon="-121.989703">
        <ele>103.756337</ele>
        <time>2023-02-13T00:26:54.399Z</time>
      </trkpt>
      <trkpt lat="37.210498" lon="-121.989675">
        <ele>103.221574</ele>
        <time>2023-02-13T00:27:04.380Z</time>
      </trkpt>
      <trkpt lat="37.210600" lon="-121.989646">
        <ele>102.612027</ele>
        <time>2023-02-13T00:27:10.408Z</time>
      </trkpt>
      <trkpt lat="37.210697" lon="-121.989618">
        <ele>102.031925</ele>
        <time>2023-02-13T00:27:17.387Z</time>
      </trkpt>
      <trkpt lat="37.210780" lon="-121.989570">
        <ele>101.499323</ele>
        <time>2023-02-13T00:27:26.391Z</time>
      </trkpt>
      <trkpt lat="37.210870" lon="-121.989514">
        <ele>100.913892</ele>
        <time>2023-02-13T00:27:33.383Z</time>
      </trkpt>
      <trkpt lat="37.210949" lon="-121.989447">
        <ele>100.358256</ele>
        <time>2023-02-13T00:27:41.396Z</time>
      </trkpt>
      <trkpt lat="37.211043" lon="-121.989391">
        <ele>99.751848</ele>
        <time>2023-02-13T00:27:48.401Z</time>
      </trkpt>
      <trkpt lat="37.211125" lon="-121.989324">
        <ele>99.577437</ele>
        <time>2023-02-13T00:27:54.395Z</time>
      </trkpt>
      <trkpt lat="37.211206" lon="-121.989254">
        <ele>99.488436</ele>
        <time>2023-02-13T00:28:01.385Z</time>
      </trkpt>
      <trkpt lat="37.211294" lon="-121.989191">
        <ele>99.396750</ele>
        <time>2023-02-13T00:28:11.402Z</time>
      </trkpt>
      <trkpt lat="37.211351" lon="-121.989080">
        <ele>99.301546</ele>
        <time>2023-02-13T00:28:19.412Z</time>
      </trkpt>
      <trkpt lat="37.211411" lon="-121.988993">
        <ele>99.218587</ele>
        <time>2023-02-13T00:28:26.383Z</time>
      </trkpt>
      <trkpt lat="37.211457" lon="-121.988890">
        <ele>99.133464</ele>
        <time>2023-02-13T00:28:34.415Z</time>
      </trkpt>
      <trkpt lat="37.211474" lon="-121.988766">
        <ele>99.042765</ele>
        <time>2023-02-13T00:28:41.398Z</time>
      </trkpt>
      <trkpt lat="37.211519" lon="-121.988666">
        <ele>98.959970</ele>
        <time>2023-02-13T00:28:47.399Z</time>
      </trkpt>
      <trkpt lat="37.211570" lon="-121.988567">
        <ele>98.874979</ele>
        <time>2023-02-13T00:28:53.371Z</time>
      </trkpt>
      <trkpt lat="37.211622" lon="-121.988460">
        <ele>98.784623</ele>
        <time>2023-02-13T00:29:00.376Z</time>
      </trkpt>
      <trkpt lat="37.211676" lon="-121.988356">
        <ele>98.695130</ele>
        <time>2023-02-13T00:29:08.367Z</time>
      </trkpt>
      <trkpt lat="37.211726" lon="-121.988257">
        <ele>98.610628</ele>
        <time>2023-02-13T00:29:15.397Z</time>
      </trkpt>
      <trkpt lat="37.211785" lon="-121.988169">
        <ele>98.527709</ele>
        <time>2023-02-13T00:29:23.394Z</time>
      </trkpt>
      <trkpt lat="37.211859" lon="-121.988100">
        <ele>98.444283</ele>
        <time>2023-02-13T00:29:30.408Z</time>
      </trkpt>
      <trkpt lat="37.211948" lon="-121.988050">
        <ele>98.356032</ele>
        <time>2023-02-13T00:29:37.387Z</time>
      </trkpt>
      <trkpt lat="37.212043" lon="-121.988011">
        <ele>98.265568</ele>
        <time>2023-02-13T00:29:45.418Z</time>
      </trkpt>
      <trkpt lat="37.212133" lon="-121.987956">
        <ele>98.174972</ele>
        <time>2023-02-13T00:29:53.396Z</time>
      </trkpt>
      <trkpt lat="37.212215" lon="-121.987902">
        <ele>98.091165</ele>
        <time>2023-02-13T00:30:00.422Z</time>
      </trkpt>
      <trkpt lat="37.212300" lon="-121.987847">
        <ele>97.938391</ele>
        <time>2023-02-13T00:30:08.389Z</time>
      </trkpt>
      <trkpt lat="37.212372" lon="-121.987764">
        <ele>97.517270</ele>
        <time>2023-02-13T00:30:18.400Z</time>
      </trkpt>
      <trkpt lat="37.212459" lon="-121.987689">
        <ele>97.062589</ele>
        <time>2023-02-13T00:30:25.417Z</time>
      </trkpt>
      <trkpt lat="37.212544" lon="-121.987644">
        <ele>96.665144</ele>
        <time>2023-02-13T00:30:31.380Z</time>
      </trkpt>
      <trkpt lat="37.212640" lon="-121.987607">
        <ele>96.232479</ele>
        <time>2023-02-13T00:30:38.409Z</time>
      </trkpt>
      <trkpt lat="37.212721" lon="-121.987552">
        <ele>95.835730</ele>
        <time>2023-02-13T00:30:46.392Z</time>
      </trkpt>
      <trkpt lat="37.212812" lon="-121.987494">
        <ele>95.396036</ele>
        <time>2023-02-13T00:30:54.391Z</time>
      </trkpt>
      <trkpt lat="37.212902" lon="-121.987471">
        <ele>95.000319</ele>
        <time>2023-02-13T00:31:00.396Z</time>
      </trkpt>
      <trkpt lat="37.212998" lon="-121.987465">
        <ele>94.586188</ele>
        <time>2023-02-13T00:31:07.398Z</time>
      </trkpt>
      <trkpt lat="37.213088" lon="-121.987465">
        <ele>94.198420</ele>
        <time>2023-02-13T00:31:16.401Z</time>
      </trkpt>
      <trkpt lat="37.213174" lon="-121.987424">
        <ele>93.802079</ele>
        <time>2023-02-13T00:31:23.387Z</time>
      </trkpt>
      <trkpt lat="37.213265" lon="-121.987416">
        <ele>93.409043</ele>
        <time>2023-02-13T00:31:36.394Z</time>
      </trkpt>
      <trkpt lat="37.213357" lon="-121.987376">
        <ele>92.989569</ele>
        <time>2023-02-13T00:31:40.386Z</time>
      </trkpt>
      <trkpt lat="37.213454" lon="-121.987357">
        <ele>92.566587</ele>
        <time>2023-02-13T00:31:46.387Z</time>
      </trkpt>
      <trkpt lat="37.213550" lon="-121.987357">
        <ele>92.152969</ele>
        <time>2023-02-13T00:31:56.384Z</time>
      </trkpt>
      <trkpt lat="37.213648" lon="-121.987357">
        <ele>91.730733</ele>
        <time>2023-02-13T00:32:06.395Z</time>
      </trkpt>
      <trkpt lat="37.213739" lon="-121.987350">
        <ele>91.337922</ele>
        <time>2023-02-13T00:32:13.388Z</time>
      </trkpt>
      <trkpt lat="37.213830" lon="-121.987380">
        <ele>90.932558</ele>
        <time>2023-02-13T00:32:22.402Z</time>
      </trkpt>
      <trkpt lat="37.213923" lon="-121.987397">
        <ele>90.527641</ele>
        <time>2023-02-13T00:32:28.397Z</time>
      </trkpt>
      <trkpt lat="37.214013" lon="-121.987360">
        <ele>90.190923</ele>
        <time>2023-02-13T00:32:42.376Z</time>
      </trkpt>
      <trkpt lat="37.214111" lon="-121.987383">
        <ele>89.961426</ele>
        <time>2023-02-13T00:32:48.378Z</time>
      </trkpt>
      <trkpt lat="37.214208" lon="-121.987377">
        <ele>89.737867</ele>
        <time>2023-02-13T00:32:53.392Z</time>
      </trkpt>
      <trkpt lat="37.214319" lon="-121.987399">
        <ele>89.479187</ele>
        <time>2023-02-13T00:33:03.378Z</time>
      </trkpt>
      <trkpt lat="37.214414" lon="-121.987443">
        <ele>89.246101</ele>
        <time>2023-02-13T00:33:08.368Z</time>
      </trkpt>
      <trkpt lat="37.214510" lon="-121.987483">
        <ele>89.013265</ele>
        <time>2023-02-13T00:33:15.393Z</time>
      </trkpt>
      <trkpt lat="37.214598" lon="-121.987522">
        <ele>88.798447</ele>
        <time>2023-02-13T00:33:26.392Z</time>
      </trkpt>
      <trkpt lat="37.214685" lon="-121.987579">
        <ele>88.572557</ele>
        <time>2023-02-13T00:33:32.399Z</time>
      </trkpt>
      <trkpt lat="37.214786" lon="-121.987595">
        <ele>88.338217</ele>
        <time>2023-02-13T00:33:38.402Z</time>
      </trkpt>
      <trkpt lat="37.214883" lon="-121.987629">
        <ele>88.106392</ele>
        <time>2023-02-13T00:33:46.370Z</time>
      </trkpt>
      <trkpt lat="37.214982" lon="-121.987671">
        <ele>87.865845</ele>
        <time>2023-02-13T00:33:55.369Z</time>
      </trkpt>
      <trkpt lat="37.215073" lon="-121.987717">
        <ele>87.640031</ele>
        <time>2023-02-13T00:34:05.395Z</time>
      </trkpt>
      <trkpt lat="37.215158" lon="-121.987759">
        <ele>87.429762</ele>
        <time>2023-02-13T00:34:14.410Z</time>
      </trkpt>
      <trkpt lat="37.215253" lon="-121.987794">
        <ele>87.201859</ele>
        <time>2023-02-13T00:34:24.410Z</time>
      </trkpt>
      <trkpt lat="37.215357" lon="-121.987828">
        <ele>86.954476</ele>
        <time>2023-02-13T00:34:30.406Z</time>
      </trkpt>
      <trkpt lat="37.215446" lon="-121.987878">
        <ele>86.730033</ele>
        <time>2023-02-13T00:34:41.372Z</time>
      </trkpt>
      <trkpt lat="37.215534" lon="-121.987911">
        <ele>86.518622</ele>
        <time>2023-02-13T00:34:48.386Z</time>
      </trkpt>
      <trkpt lat="37.215628" lon="-121.987960">
        <ele>86.284335</ele>
        <time>2023-02-13T00:34:53.410Z</time>
      </trkpt>
      <trkpt lat="37.215714" lon="-121.987998">
        <ele>86.150813</ele>
        <time>2023-02-13T00:35:02.398Z</time>
      </trkpt>
      <trkpt lat="37.215803" lon="-121.988029">
        <ele>86.218665</ele>
        <time>2023-02-13T00:35:10.405Z</time>
      </trkpt>
      <trkpt lat="37.215908" lon="-121.988037">
        <ele>86.295944</ele>
        <time>2023-02-13T00:35:21.388Z</time>
      </trkpt>
      <trkpt lat="37.216031" lon="-121.988058">
        <ele>86.387136</ele>
        <time>2023-02-13T00:35:36.395Z</time>
      </trkpt>
      <trkpt lat="37.216134" lon="-121.988062">
        <ele>86.462840</ele>
        <time>2023-02-13T00:35:39.407Z</time>
      </trkpt>
      <trkpt lat="37.216243" lon="-121.988066">
        <ele>86.542949</ele>
        <time>2023-02-13T00:35:45.398Z</time>
      </trkpt>
      <trkpt lat="37.216338" lon="-121.988041">
        <ele>86.614256</ele>
        <time>2023-02-13T00:35:50.393Z</time>
      </trkpt>
      <trkpt lat="37.216432" lon="-121.988055">
        <ele>86.683796</ele>
        <time>2023-02-13T00:35:55.401Z</time>
      </trkpt>
      <trkpt lat="37.216531" lon="-121.988058">
        <ele>86.756547</ele>
        <time>2023-02-13T00:36:02.418Z</time>
      </trkpt>
      <trkpt lat="37.216622" lon="-121.988066">
        <ele>86.823563</ele>
        <time>2023-02-13T00:36:08.363Z</time>
      </trkpt>
      <trkpt lat="37.216723" lon="-121.988063">
        <ele>86.897782</ele>
        <time>2023-02-13T00:36:16.382Z</time>
      </trkpt>
      <trkpt lat="37.216824" lon="-121.988041">
        <ele>86.973089</ele>
        <time>2023-02-13T00:36:24.378Z</time>
      </trkpt>
      <trkpt lat="37.216915" lon="-121.988003">
        <ele>87.043540</ele>
        <time>2023-02-13T00:36:30.424Z</time>
      </trkpt>
      <trkpt lat="37.217004" lon="-121.987968">
        <ele>87.112054</ele>
        <time>2023-02-13T00:36:38.395Z</time>
      </trkpt>
      <trkpt lat="37.217088" lon="-121.987922">
        <ele>87.179377</ele>
        <time>2023-02-13T00:36:44.404Z</time>
      </trkpt>
      <trkpt lat="37.217176" lon="-121.987890">
        <ele>87.246681</ele>
        <time>2023-02-13T00:36:51.398Z</time>
      </trkpt>
      <trkpt lat="37.217267" lon="-121.987849">
        <ele>87.317706</ele>
        <time>2023-02-13T00:37:00.386Z</time>
      </trkpt>
      <trkpt lat="37.217341" lon="-121.987776">
        <ele>87.386838</ele>
        <time>2023-02-13T00:37:08.412Z</time>
      </trkpt>
      <trkpt lat="37.217413" lon="-121.987706">
        <ele>87.453642</ele>
        <time>2023-02-13T00:37:16.381Z</time>
      </trkpt>
      <trkpt lat="37.217501" lon="-121.987637">
        <ele>87.335860</ele>
        <time>2023-02-13T00:37:23.432Z</time>
      </trkpt>
      <trkpt lat="37.217577" lon="-121.987574">
        <ele>87.232474</ele>
        <time>2023-02-13T00:37:29.394Z</time>
      </trkpt>
      <trkpt lat="37.217652" lon="-121.987511">
        <ele>87.130033</ele>
        <time>2023-02-13T00:37:35.406Z</time>
      </trkpt>
      <trkpt lat="37.217733" lon="-121.987443">
        <ele>87.019418</ele>
        <time>2023-02-13T00:37:43.419Z</time>
      </trkpt>
      <trkpt lat="37.217806" lon="-121.987359">
        <ele>86.907009</ele>
        <time>2023-02-13T00:37:50.406Z</time>
      </trkpt>
      <trkpt lat="37.217884" lon="-121.987289">
        <ele>86.798167</ele>
        <time>2023-02-13T00:37:58.411Z</time>
      </trkpt>
      <trkpt lat="37.217968" lon="-121.987226">
        <ele>86.687088</ele>
        <time>2023-02-13T00:38:07.421Z</time>
      </trkpt>
      <trkpt lat="37.218041" lon="-121.987157">
        <ele>86.583359</ele>
        <time>2023-02-13T00:38:15.406Z</time>
      </trkpt>
      <trkpt lat="37.218110" lon="-121.987077">
        <ele>86.476740</ele>
        <time>2023-02-13T00:38:23.402Z</time>
      </trkpt>
      <trkpt lat="37.218177" lon="-121.986989">
        <ele>86.366671</ele>
        <time>2023-02-13T00:38:31.371Z</time>
      </trkpt>
      <trkpt lat="37.218250" lon="-121.986898">
        <ele>86.249894</ele>
        <time>2023-02-13T00:38:39.412Z</time>
      </trkpt>
      <trkpt lat="37.218310" lon="-121.986811">
        <ele>86.145843</ele>
        <time>2023-02-13T00:38:46.413Z</time>
      </trkpt>
      <trkpt lat="37.218366" lon="-121.986717">
        <ele>86.039711</ele>
        <time>2023-02-13T00:38:52.389Z</time>
      </trkpt>
      <trkpt lat="37.218429" lon="-121.986628">
        <ele>85.932056</ele>
        <time>2023-02-13T00:39:00.361Z</time>
      </trkpt>
      <trkpt lat="37.218495" lon="-121.986534">
        <ele>85.818758</ele>
        <time>2023-02-13T00:39:07.416Z</time>
      </trkpt>
      <trkpt lat="37.218559" lon="-121.986440">
        <ele>85.706948</ele>
        <time>2023-02-13T00:39:16.383Z</time>
      </trkpt>
      <trkpt lat="37.218621" lon="-121.986355">
        <ele>85.602738</ele>
        <time>2023-02-13T00:39:24.377Z</time>
      </trkpt>
      <trkpt lat="37.218674" lon="-121.986262">
        <ele>85.499348</ele>
        <time>2023-02-13T00:39:31.413Z</time>
      </trkpt>
      <trkpt lat="37.218715" lon="-121.986157">
        <ele>85.363060</ele>
        <time>2023-02-13T00:39:38.394Z</time>
      </trkpt>
      <trkpt lat="37.218769" lon="-121.986056">
        <ele>85.067311</ele>
        <time>2023-02-13T00:39:46.408Z</time>
      </trkpt>
      <trkpt lat="37.218830" lon="-121.985970">
        <ele>84.787326</ele>
        <time>2023-02-13T00:39:54.408Z</time>
      </trkpt>
      <trkpt lat="37.218883" lon="-121.985869">
        <ele>84.493268</ele>
        <time>2023-02-13T00:40:02.410Z</time>
      </trkpt>
      <trkpt lat="37.218948" lon="-121.985779">
        <ele>84.197887</ele>
        <time>2023-02-13T00:40:10.403Z</time>
      </trkpt>
      <trkpt lat="37.219013" lon="-121.985683">
        <ele>83.891545</ele>
        <time>2023-02-13T00:40:17.416Z</time>
      </trkpt>
      <trkpt lat="37.219047" lon="-121.985564">
        <ele>83.584188</ele>
        <time>2023-02-13T00:40:26.414Z</time>
      </trkpt>
      <trkpt lat="37.219106" lon="-121.985476">
        <ele>83.304525</ele>
        <time>2023-02-13T00:40:33.396Z</time>
      </trkpt>
      <trkpt lat="37.219166" lon="-121.985385">
        <ele>83.017307</ele>
        <time>2023-02-13T00:40:41.416Z</time>
      </trkpt>
      <trkpt lat="37.219230" lon="-121.985281">
        <ele>82.697778</ele>
        <time>2023-02-13T00:40:49.408Z</time>
      </trkpt>
      <trkpt lat="37.219292" lon="-121.985182">
        <ele>82.391589</ele>
        <time>2023-02-13T00:40:57.395Z</time>
      </trkpt>
      <trkpt lat="37.219344" lon="-121.985075">
        <ele>82.086849</ele>
        <time>2023-02-13T00:41:05.405Z</time>
      </trkpt>
      <trkpt lat="37.219403" lon="-121.984976">
        <ele>81.786236</ele>
        <time>2023-02-13T00:41:13.402Z</time>
      </trkpt>
      <trkpt lat="37.219491" lon="-121.984825">
        <ele>81.331339</ele>
        <time>2023-02-13T00:43:18.396Z</time>
      </trkpt>
      <trkpt lat="37.219557" lon="-121.984741">
        <ele>81.044460</ele>
        <time>2023-02-13T00:43:29.427Z</time>
      </trkpt>
      <trkpt lat="37.219599" lon="-121.984613">
        <ele>80.707901</ele>
        <time>2023-02-13T00:43:35.427Z</time>
      </trkpt>
      <trkpt lat="37.219661" lon="-121.984525">
        <ele>80.422254</ele>
        <time>2023-02-13T00:43:43.403Z</time>
      </trkpt>
      <trkpt lat="37.219704" lon="-121.984417">
        <ele>80.128711</ele>
        <time>2023-02-13T00:43:52.425Z</time>
      </trkpt>
      <trkpt lat="37.219760" lon="-121.984327">
        <ele>79.897032</ele>
        <time>2023-02-13T00:43:59.400Z</time>
      </trkpt>
      <trkpt lat="37.219810" lon="-121.984230">
        <ele>79.801604</ele>
        <time>2023-02-13T00:44:06.388Z</time>
      </trkpt>
      <trkpt lat="37.219864" lon="-121.984126">
        <ele>79.699067</ele>
        <time>2023-02-13T00:44:14.400Z</time>
      </trkpt>
      <trkpt lat="37.219978" lon="-121.983957">
        <ele>79.516148</ele>
        <time>2023-02-13T00:44:47.395Z</time>
      </trkpt>
      <trkpt lat="37.220032" lon="-121.983851">
        <ele>79.412224</ele>
        <time>2023-02-13T00:44:58.399Z</time>
      </trkpt>
      <trkpt lat="37.220093" lon="-121.983743">
        <ele>79.302871</ele>
        <time>2023-02-13T00:45:05.391Z</time>
      </trkpt>
      <trkpt lat="37.220148" lon="-121.983652">
        <ele>79.208521</ele>
        <time>2023-02-13T00:45:10.415Z</time>
      </trkpt>
      <trkpt lat="37.220188" lon="-121.983546">
        <ele>79.111646</ele>
        <time>2023-02-13T00:45:17.428Z</time>
      </trkpt>
      <trkpt lat="37.220242" lon="-121.983454">
        <ele>79.017256</ele>
        <time>2023-02-13T00:45:28.414Z</time>
      </trkpt>
      <trkpt lat="37.220298" lon="-121.983338">
        <ele>78.905225</ele>
        <time>2023-02-13T00:45:35.411Z</time>
      </trkpt>
      <trkpt lat="37.220354" lon="-121.983248">
        <ele>78.810897</ele>
        <time>2023-02-13T00:45:42.404Z</time>
      </trkpt>
      <trkpt lat="37.220405" lon="-121.983155">
        <ele>78.717640</ele>
        <time>2023-02-13T00:45:50.392Z</time>
      </trkpt>
      <trkpt lat="37.220464" lon="-121.983061">
        <ele>78.618792</ele>
        <time>2023-02-13T00:45:59.407Z</time>
      </trkpt>
      <trkpt lat="37.220520" lon="-121.982965">
        <ele>78.520512</ele>
        <time>2023-02-13T00:46:07.426Z</time>
      </trkpt>
      <trkpt lat="37.220575" lon="-121.982863">
        <ele>78.418777</ele>
        <time>2023-02-13T00:46:16.404Z</time>
      </trkpt>
      <trkpt lat="37.220640" lon="-121.982771">
        <ele>78.317203</ele>
        <time>2023-02-13T00:46:23.417Z</time>
      </trkpt>
      <trkpt lat="37.220719" lon="-121.982707">
        <ele>78.219701</ele>
        <time>2023-02-13T00:46:29.420Z</time>
      </trkpt>
      <trkpt lat="37.220788" lon="-121.982634">
        <ele>78.126129</ele>
        <time>2023-02-13T00:46:36.381Z</time>
      </trkpt>
      <trkpt lat="37.220843" lon="-121.982533">
        <ele>78.055291</ele>
        <time>2023-02-13T00:46:44.399Z</time>
      </trkpt>
      <trkpt lat="37.220915" lon="-121.982447">
        <ele>78.055291</ele>
        <time>2023-02-13T00:46:51.418Z</time>
      </trkpt>
      <trkpt lat="37.220986" lon="-121.982377">
        <ele>78.055291</ele>
        <time>2023-02-13T00:46:58.422Z</time>
      </trkpt>
      <trkpt lat="37.221054" lon="-121.982301">
        <ele>78.055291</ele>
        <time>2023-02-13T00:47:05.430Z</time>
      </trkpt>
      <trkpt lat="37.221121" lon="-121.982218">
        <ele>78.055291</ele>
        <time>2023-02-13T00:47:11.420Z</time>
      </trkpt>
      <trkpt lat="37.221152" lon="-121.982110">
        <ele>78.055291</ele>
        <time>2023-02-13T00:47:19.412Z</time>
      </trkpt>
      <trkpt lat="37.221155" lon="-121.981992">
        <ele>78.055291</ele>
        <time>2023-02-13T00:47:27.420Z</time>
      </trkpt>
      <trkpt lat="37.221180" lon="-121.981865">
        <ele>78.055291</ele>
        <time>2023-02-13T00:47:35.436Z</time>
      </trkpt>
      <trkpt lat="37.221193" lon="-121.981752">
        <ele>78.055291</ele>
        <time>2023-02-13T00:47:42.417Z</time>
      </trkpt>
      <trkpt lat="37.221213" lon="-121.981640">
        <ele>78.055291</ele>
        <time>2023-02-13T00:47:51.417Z</time>
      </trkpt>
      <trkpt lat="37.221245" lon="-121.981555">
        <ele>78.055291</ele>
        <time>2023-02-13T00:48:30.411Z</time>
      </trkpt>
    </trkseg>
  </trk>
</gpx>