<?xml version="1.0"?>
<gpx xmlns="http://www.topografix.com/GPX/1/1" xmlns:xsi="http://www.w3.org/2001/XMLSchema-instance" version="1.1" creator="AllTrails.com" xsi:schemaLocation="http://www.topografix.com/GPX/1/1 http://www.topografix.com/GPX/1/1/gpx.xsd">
  <metadata>
    <name><![CDATA[Afternoon hike]]></name>
    <desc><![CDATA[]]></desc>
    <link href="http://www.alltrails.com">
      <text>AllTrails, LLC</text>
    </link>
    <bounds minlat="36.9843" minlon="-122.05006" maxlat="37.00632" maxlon="-122.03477"/>
  </metadata>
  <trk>
    <name><![CDATA[Afternoon hike]]></name>
    <src>AllTrails</src>
    <trkseg>
      <trkpt lat="36.98448" lon="-122.04719">
        <ele>123.79</ele>
      </trkpt>
      <trkpt lat="36.98466" lon="-122.04703">
        <ele>123.25</ele>
      </trkpt>
      <trkpt lat="36.98498" lon="-122.04684">
        <ele>122.87</ele>
      </trkpt>
      <trkpt lat="36.98557" lon="-122.04668">
        <ele>124.02</ele>
      </trkpt>
      <trkpt lat="36.98566" lon="-122.04666">
        <ele>123.93</ele>
      </trkpt>
      <trkpt lat="36.98577" lon="-122.04673">
        <ele>124.68</ele>
      </trkpt>
      <trkpt lat="36.98589" lon="-122.04677">
        <ele>125.12</ele>
      </trkpt>
      <trkpt lat="36.98557" lon="-122.04696">
        <ele>126.17</ele>
      </trkpt>
      <trkpt lat="36.98592" lon="-122.04701">
        <ele>127.0</ele>
      </trkpt>
      <trkpt lat="36.98651" lon="-122.04709">
        <ele>129.57</ele>
      </trkpt>
      <trkpt lat="36.9866" lon="-122.04723">
        <ele>131.06</ele>
      </trkpt>
      <trkpt lat="36.98673" lon="-122.04726">
        <ele>130.6</ele>
      </trkpt>
      <trkpt lat="36.98689" lon="-122.04729">
        <ele>129.62</ele>
      </trkpt>
      <trkpt lat="36.98723" lon="-122.04739">
        <ele>130.83</ele>
      </trkpt>
      <trkpt lat="36.98688" lon="-122.0474">
        <ele>130.92</ele>
      </trkpt>
      <trkpt lat="36.98715" lon="-122.04746">
        <ele>131.57</ele>
      </trkpt>
      <trkpt lat="36.98745" lon="-122.04752">
        <ele>131.12</ele>
      </trkpt>
      <trkpt lat="36.98803" lon="-122.04764">
        <ele>130.24</ele>
      </trkpt>
      <trkpt lat="36.98827" lon="-122.04772">
        <ele>132.38</ele>
      </trkpt>
      <trkpt lat="36.98873" lon="-122.04751">
        <ele>131.39</ele>
      </trkpt>
      <trkpt lat="36.98883" lon="-122.04746">
        <ele>131.29</ele>
      </trkpt>
      <trkpt lat="36.98891" lon="-122.04742">
        <ele>131.17</ele>
      </trkpt>
      <trkpt lat="36.98918" lon="-122.04732">
        <ele>132.06</ele>
      </trkpt>
      <trkpt lat="36.98931" lon="-122.04728">
        <ele>131.62</ele>
      </trkpt>
      <trkpt lat="36.98948" lon="-122.04724">
        <ele>132.19</ele>
      </trkpt>
      <trkpt lat="36.98964" lon="-122.0472">
        <ele>131.97</ele>
      </trkpt>
      <trkpt lat="36.99001" lon="-122.04754">
        <ele>131.28</ele>
      </trkpt>
      <trkpt lat="36.99054" lon="-122.04815">
        <ele>133.23</ele>
      </trkpt>
      <trkpt lat="36.9916" lon="-122.04853">
        <ele>132.84</ele>
      </trkpt>
      <trkpt lat="36.99206" lon="-122.0487">
        <ele>131.95</ele>
      </trkpt>
      <trkpt lat="36.99226" lon="-122.04881">
        <ele>132.71</ele>
      </trkpt>
      <trkpt lat="36.99285" lon="-122.0491">
        <ele>134.84</ele>
      </trkpt>
      <trkpt lat="36.99357" lon="-122.04943">
        <ele>143.75</ele>
      </trkpt>
      <trkpt lat="36.9956" lon="-122.05006">
        <ele>170.94</ele>
      </trkpt>
      <trkpt lat="36.99578" lon="-122.04949">
        <ele>153.9</ele>
      </trkpt>
      <trkpt lat="36.99598" lon="-122.04863">
        <ele>132.79</ele>
      </trkpt>
      <trkpt lat="36.99654" lon="-122.04812">
        <ele>118.71</ele>
      </trkpt>
      <trkpt lat="36.99777" lon="-122.04759">
        <ele>135.89</ele>
      </trkpt>
      <trkpt lat="36.99672" lon="-122.0486">
        <ele>134.47</ele>
      </trkpt>
      <trkpt lat="36.99749" lon="-122.0487">
        <ele>146.49</ele>
      </trkpt>
      <trkpt lat="36.99792" lon="-122.04877">
        <ele>154.56</ele>
      </trkpt>
      <trkpt lat="36.9982" lon="-122.04872">
        <ele>149.41</ele>
      </trkpt>
      <trkpt lat="36.9984" lon="-122.04869">
        <ele>148.28</ele>
      </trkpt>
      <trkpt lat="36.99864" lon="-122.04869">
        <ele>151.33</ele>
      </trkpt>
      <trkpt lat="36.99885" lon="-122.04863">
        <ele>153.65</ele>
      </trkpt>
      <trkpt lat="36.99899" lon="-122.04846">
        <ele>152.86</ele>
      </trkpt>
      <trkpt lat="36.99912" lon="-122.04835">
        <ele>153.26</ele>
      </trkpt>
      <trkpt lat="36.99925" lon="-122.04826">
        <ele>154.4</ele>
      </trkpt>
      <trkpt lat="36.99929" lon="-122.04807">
        <ele>151.92</ele>
      </trkpt>
      <trkpt lat="36.99941" lon="-122.04802">
        <ele>152.86</ele>
      </trkpt>
      <trkpt lat="36.99953" lon="-122.04798">
        <ele>153.29</ele>
      </trkpt>
      <trkpt lat="36.99966" lon="-122.04806">
        <ele>156.06</ele>
      </trkpt>
      <trkpt lat="36.99976" lon="-122.04816">
        <ele>158.26</ele>
      </trkpt>
      <trkpt lat="37.00002" lon="-122.04845">
        <ele>163.36</ele>
      </trkpt>
      <trkpt lat="37.00008" lon="-122.04854">
        <ele>165.26</ele>
      </trkpt>
      <trkpt lat="37.00054" lon="-122.04863">
        <ele>164.75</ele>
      </trkpt>
      <trkpt lat="37.00093" lon="-122.04913">
        <ele>171.56</ele>
      </trkpt>
      <trkpt lat="37.00116" lon="-122.04894">
        <ele>168.1</ele>
      </trkpt>
      <trkpt lat="37.00149" lon="-122.04888">
        <ele>167.81</ele>
      </trkpt>
      <trkpt lat="37.00187" lon="-122.04887">
        <ele>167.8</ele>
      </trkpt>
      <trkpt lat="37.00359" lon="-122.04843">
        <ele>151.32</ele>
      </trkpt>
      <trkpt lat="37.00363" lon="-122.04849">
        <ele>152.04</ele>
      </trkpt>
      <trkpt lat="37.00377" lon="-122.04836">
        <ele>148.37</ele>
      </trkpt>
      <trkpt lat="37.00392" lon="-122.0483">
        <ele>145.66</ele>
      </trkpt>
      <trkpt lat="37.00408" lon="-122.04826">
        <ele>144.21</ele>
      </trkpt>
      <trkpt lat="37.00421" lon="-122.04822">
        <ele>143.78</ele>
      </trkpt>
      <trkpt lat="37.00432" lon="-122.04818">
        <ele>143.34</ele>
      </trkpt>
      <trkpt lat="37.00448" lon="-122.04808">
        <ele>142.26</ele>
      </trkpt>
      <trkpt lat="37.00464" lon="-122.04796">
        <ele>139.97</ele>
      </trkpt>
      <trkpt lat="37.00475" lon="-122.04784">
        <ele>138.34</ele>
      </trkpt>
      <trkpt lat="37.00481" lon="-122.04773">
        <ele>136.48</ele>
      </trkpt>
      <trkpt lat="37.00478" lon="-122.04759">
        <ele>134.98</ele>
      </trkpt>
      <trkpt lat="37.00474" lon="-122.04747">
        <ele>134.55</ele>
      </trkpt>
      <trkpt lat="37.00469" lon="-122.04738">
        <ele>134.24</ele>
      </trkpt>
      <trkpt lat="37.005" lon="-122.04743">
        <ele>134.0</ele>
      </trkpt>
      <trkpt lat="37.00517" lon="-122.04745">
        <ele>133.46</ele>
      </trkpt>
      <trkpt lat="37.00542" lon="-122.04747">
        <ele>134.36</ele>
      </trkpt>
      <trkpt lat="37.00558" lon="-122.04748">
        <ele>136.52</ele>
      </trkpt>
      <trkpt lat="37.00573" lon="-122.04737">
        <ele>137.96</ele>
      </trkpt>
      <trkpt lat="37.00577" lon="-122.04703">
        <ele>134.29</ele>
      </trkpt>
      <trkpt lat="37.00586" lon="-122.04681">
        <ele>133.68</ele>
      </trkpt>
      <trkpt lat="37.00598" lon="-122.04675">
        <ele>133.9</ele>
      </trkpt>
      <trkpt lat="37.00614" lon="-122.04664">
        <ele>132.71</ele>
      </trkpt>
      <trkpt lat="37.00623" lon="-122.04652">
        <ele>131.42</ele>
      </trkpt>
      <trkpt lat="37.00632" lon="-122.04642">
        <ele>129.33</ele>
      </trkpt>
      <trkpt lat="37.00628" lon="-122.04628">
        <ele>128.0</ele>
      </trkpt>
      <trkpt lat="37.00613" lon="-122.04629">
        <ele>128.93</ele>
      </trkpt>
      <trkpt lat="37.00611" lon="-122.04648">
        <ele>130.98</ele>
      </trkpt>
      <trkpt lat="37.00606" lon="-122.0467">
        <ele>133.36</ele>
      </trkpt>
      <trkpt lat="37.00587" lon="-122.04684">
        <ele>133.92</ele>
      </trkpt>
      <trkpt lat="37.00569" lon="-122.04695">
        <ele>133.48</ele>
      </trkpt>
      <trkpt lat="37.00567" lon="-122.04681">
        <ele>132.65</ele>
      </trkpt>
      <trkpt lat="37.00567" lon="-122.04652">
        <ele>131.1</ele>
      </trkpt>
      <trkpt lat="37.00567" lon="-122.04636">
        <ele>129.69</ele>
      </trkpt>
      <trkpt lat="37.00582" lon="-122.04629">
        <ele>128.93</ele>
      </trkpt>
      <trkpt lat="37.00587" lon="-122.04604">
        <ele>126.23</ele>
      </trkpt>
      <trkpt lat="37.00591" lon="-122.04591">
        <ele>124.83</ele>
      </trkpt>
      <trkpt lat="37.00591" lon="-122.04579">
        <ele>123.61</ele>
      </trkpt>
      <trkpt lat="37.00585" lon="-122.04571">
        <ele>123.55</ele>
      </trkpt>
      <trkpt lat="37.00567" lon="-122.04568">
        <ele>124.76</ele>
      </trkpt>
      <trkpt lat="37.00556" lon="-122.04578">
        <ele>125.95</ele>
      </trkpt>
      <trkpt lat="37.0055" lon="-122.04589">
        <ele>126.37</ele>
      </trkpt>
      <trkpt lat="37.00542" lon="-122.04595">
        <ele>127.0</ele>
      </trkpt>
      <trkpt lat="37.00536" lon="-122.04602">
        <ele>127.02</ele>
      </trkpt>
      <trkpt lat="37.00529" lon="-122.04609">
        <ele>127.77</ele>
      </trkpt>
      <trkpt lat="37.00522" lon="-122.04613">
        <ele>127.5</ele>
      </trkpt>
      <trkpt lat="37.00513" lon="-122.04615">
        <ele>127.42</ele>
      </trkpt>
      <trkpt lat="37.0051" lon="-122.04601">
        <ele>126.92</ele>
      </trkpt>
      <trkpt lat="37.00507" lon="-122.04587">
        <ele>125.85</ele>
      </trkpt>
      <trkpt lat="37.00513" lon="-122.0458">
        <ele>126.26</ele>
      </trkpt>
      <trkpt lat="37.00525" lon="-122.04573">
        <ele>126.62</ele>
      </trkpt>
      <trkpt lat="37.00532" lon="-122.04561">
        <ele>126.0</ele>
      </trkpt>
      <trkpt lat="37.00544" lon="-122.04548">
        <ele>126.0</ele>
      </trkpt>
      <trkpt lat="37.00558" lon="-122.04539">
        <ele>125.0</ele>
      </trkpt>
      <trkpt lat="37.00569" lon="-122.04534">
        <ele>125.0</ele>
      </trkpt>
      <trkpt lat="37.00578" lon="-122.04532">
        <ele>124.58</ele>
      </trkpt>
      <trkpt lat="37.00586" lon="-122.04541">
        <ele>123.26</ele>
      </trkpt>
      <trkpt lat="37.00591" lon="-122.0455">
        <ele>122.28</ele>
      </trkpt>
      <trkpt lat="37.00601" lon="-122.04543">
        <ele>117.1</ele>
      </trkpt>
      <trkpt lat="37.00608" lon="-122.04527">
        <ele>110.96</ele>
      </trkpt>
      <trkpt lat="37.00599" lon="-122.04522">
        <ele>116.85</ele>
      </trkpt>
      <trkpt lat="37.00586" lon="-122.04507">
        <ele>123.67</ele>
      </trkpt>
      <trkpt lat="37.00583" lon="-122.04495">
        <ele>124.02</ele>
      </trkpt>
      <trkpt lat="37.0058" lon="-122.04483">
        <ele>123.46</ele>
      </trkpt>
      <trkpt lat="37.00577" lon="-122.04465">
        <ele>122.9</ele>
      </trkpt>
      <trkpt lat="37.00576" lon="-122.04456">
        <ele>122.48</ele>
      </trkpt>
      <trkpt lat="37.0057" lon="-122.04444">
        <ele>121.81</ele>
      </trkpt>
      <trkpt lat="37.00564" lon="-122.04436">
        <ele>122.18</ele>
      </trkpt>
      <trkpt lat="37.00554" lon="-122.04424">
        <ele>120.92</ele>
      </trkpt>
      <trkpt lat="37.00545" lon="-122.04412">
        <ele>120.13</ele>
      </trkpt>
      <trkpt lat="37.00538" lon="-122.04402">
        <ele>118.73</ele>
      </trkpt>
      <trkpt lat="37.0053" lon="-122.0439">
        <ele>117.76</ele>
      </trkpt>
      <trkpt lat="37.00522" lon="-122.04373">
        <ele>114.75</ele>
      </trkpt>
      <trkpt lat="37.00517" lon="-122.0436">
        <ele>113.04</ele>
      </trkpt>
      <trkpt lat="37.00509" lon="-122.04348">
        <ele>112.61</ele>
      </trkpt>
      <trkpt lat="37.00499" lon="-122.04338">
        <ele>112.5</ele>
      </trkpt>
      <trkpt lat="37.00486" lon="-122.04326">
        <ele>112.51</ele>
      </trkpt>
      <trkpt lat="37.00469" lon="-122.04332">
        <ele>114.35</ele>
      </trkpt>
      <trkpt lat="37.0046" lon="-122.04339">
        <ele>115.93</ele>
      </trkpt>
      <trkpt lat="37.0045" lon="-122.04344">
        <ele>117.34</ele>
      </trkpt>
      <trkpt lat="37.00433" lon="-122.0433">
        <ele>119.47</ele>
      </trkpt>
      <trkpt lat="37.00424" lon="-122.04325">
        <ele>121.21</ele>
      </trkpt>
      <trkpt lat="37.00413" lon="-122.04322">
        <ele>122.09</ele>
      </trkpt>
      <trkpt lat="37.00402" lon="-122.04318">
        <ele>122.86</ele>
      </trkpt>
      <trkpt lat="37.00392" lon="-122.0431">
        <ele>123.52</ele>
      </trkpt>
      <trkpt lat="37.00382" lon="-122.043">
        <ele>123.7</ele>
      </trkpt>
      <trkpt lat="37.00385" lon="-122.04293">
        <ele>124.21</ele>
      </trkpt>
      <trkpt lat="37.00364" lon="-122.04266">
        <ele>125.0</ele>
      </trkpt>
      <trkpt lat="37.00353" lon="-122.04261">
        <ele>124.84</ele>
      </trkpt>
      <trkpt lat="37.00339" lon="-122.04252">
        <ele>124.92</ele>
      </trkpt>
      <trkpt lat="37.00329" lon="-122.04241">
        <ele>125.52</ele>
      </trkpt>
      <trkpt lat="37.00321" lon="-122.04232">
        <ele>125.94</ele>
      </trkpt>
      <trkpt lat="37.00313" lon="-122.04219">
        <ele>126.0</ele>
      </trkpt>
      <trkpt lat="37.003" lon="-122.04205">
        <ele>125.92</ele>
      </trkpt>
      <trkpt lat="37.00284" lon="-122.04191">
        <ele>125.79</ele>
      </trkpt>
      <trkpt lat="37.00271" lon="-122.04179">
        <ele>125.27</ele>
      </trkpt>
      <trkpt lat="37.00263" lon="-122.04172">
        <ele>125.17</ele>
      </trkpt>
      <trkpt lat="37.00254" lon="-122.04165">
        <ele>125.18</ele>
      </trkpt>
      <trkpt lat="37.00247" lon="-122.0416">
        <ele>125.72</ele>
      </trkpt>
      <trkpt lat="37.00236" lon="-122.04154">
        <ele>125.82</ele>
      </trkpt>
      <trkpt lat="37.00225" lon="-122.04146">
        <ele>125.77</ele>
      </trkpt>
      <trkpt lat="37.00209" lon="-122.04133">
        <ele>125.0</ele>
      </trkpt>
      <trkpt lat="37.00197" lon="-122.04124">
        <ele>124.11</ele>
      </trkpt>
      <trkpt lat="37.00188" lon="-122.04115">
        <ele>121.97</ele>
      </trkpt>
      <trkpt lat="37.00177" lon="-122.04106">
        <ele>118.06</ele>
      </trkpt>
      <trkpt lat="37.0017" lon="-122.04101">
        <ele>116.08</ele>
      </trkpt>
      <trkpt lat="37.0016" lon="-122.04104">
        <ele>115.34</ele>
      </trkpt>
      <trkpt lat="37.00156" lon="-122.04126">
        <ele>115.7</ele>
      </trkpt>
      <trkpt lat="37.0015" lon="-122.04139">
        <ele>114.39</ele>
      </trkpt>
      <trkpt lat="37.00146" lon="-122.04151">
        <ele>112.54</ele>
      </trkpt>
      <trkpt lat="37.00138" lon="-122.04165">
        <ele>110.81</ele>
      </trkpt>
      <trkpt lat="37.00132" lon="-122.04174">
        <ele>109.51</ele>
      </trkpt>
      <trkpt lat="37.00126" lon="-122.04182">
        <ele>108.87</ele>
      </trkpt>
      <trkpt lat="37.00124" lon="-122.04167">
        <ele>107.78</ele>
      </trkpt>
      <trkpt lat="37.00134" lon="-122.04151">
        <ele>109.94</ele>
      </trkpt>
      <trkpt lat="37.00139" lon="-122.04133">
        <ele>111.66</ele>
      </trkpt>
      <trkpt lat="37.00139" lon="-122.04118">
        <ele>112.02</ele>
      </trkpt>
      <trkpt lat="37.0013" lon="-122.04111">
        <ele>109.12</ele>
      </trkpt>
      <trkpt lat="37.00119" lon="-122.04106">
        <ele>106.56</ele>
      </trkpt>
      <trkpt lat="37.00118" lon="-122.04093">
        <ele>105.52</ele>
      </trkpt>
      <trkpt lat="37.00117" lon="-122.04078">
        <ele>103.33</ele>
      </trkpt>
      <trkpt lat="37.00113" lon="-122.041">
        <ele>104.57</ele>
      </trkpt>
      <trkpt lat="37.0011" lon="-122.04112">
        <ele>103.64</ele>
      </trkpt>
      <trkpt lat="37.00106" lon="-122.0413">
        <ele>102.9</ele>
      </trkpt>
      <trkpt lat="37.00105" lon="-122.0414">
        <ele>102.68</ele>
      </trkpt>
      <trkpt lat="37.00104" lon="-122.0415">
        <ele>102.51</ele>
      </trkpt>
      <trkpt lat="37.001" lon="-122.04161">
        <ele>101.91</ele>
      </trkpt>
      <trkpt lat="37.00095" lon="-122.04172">
        <ele>101.21</ele>
      </trkpt>
      <trkpt lat="37.00091" lon="-122.04159">
        <ele>99.51</ele>
      </trkpt>
      <trkpt lat="37.00088" lon="-122.04146">
        <ele>97.89</ele>
      </trkpt>
      <trkpt lat="37.00086" lon="-122.0413">
        <ele>96.86</ele>
      </trkpt>
      <trkpt lat="37.00082" lon="-122.0412">
        <ele>95.57</ele>
      </trkpt>
      <trkpt lat="37.00078" lon="-122.04107">
        <ele>94.27</ele>
      </trkpt>
      <trkpt lat="37.00075" lon="-122.04094">
        <ele>93.3</ele>
      </trkpt>
      <trkpt lat="37.00072" lon="-122.04081">
        <ele>92.5</ele>
      </trkpt>
      <trkpt lat="37.0007" lon="-122.04065">
        <ele>91.68</ele>
      </trkpt>
      <trkpt lat="37.00069" lon="-122.0405">
        <ele>90.36</ele>
      </trkpt>
      <trkpt lat="37.00069" lon="-122.04039">
        <ele>90.36</ele>
      </trkpt>
      <trkpt lat="37.00072" lon="-122.0406">
        <ele>91.81</ele>
      </trkpt>
      <trkpt lat="37.00065" lon="-122.04071">
        <ele>90.06</ele>
      </trkpt>
      <trkpt lat="37.00056" lon="-122.04077">
        <ele>88.41</ele>
      </trkpt>
      <trkpt lat="37.00044" lon="-122.0408">
        <ele>87.14</ele>
      </trkpt>
      <trkpt lat="37.00041" lon="-122.04065">
        <ele>84.88</ele>
      </trkpt>
      <trkpt lat="37.00043" lon="-122.04044">
        <ele>84.8</ele>
      </trkpt>
      <trkpt lat="37.00038" lon="-122.04033">
        <ele>84.6</ele>
      </trkpt>
      <trkpt lat="37.00027" lon="-122.04019">
        <ele>84.86</ele>
      </trkpt>
      <trkpt lat="37.00014" lon="-122.03996">
        <ele>85.51</ele>
      </trkpt>
      <trkpt lat="37.0" lon="-122.03985">
        <ele>83.38</ele>
      </trkpt>
      <trkpt lat="36.99987" lon="-122.03982">
        <ele>81.65</ele>
      </trkpt>
      <trkpt lat="36.99977" lon="-122.03978">
        <ele>80.71</ele>
      </trkpt>
      <trkpt lat="36.99968" lon="-122.0397">
        <ele>79.54</ele>
      </trkpt>
      <trkpt lat="36.99958" lon="-122.03981">
        <ele>76.44</ele>
      </trkpt>
      <trkpt lat="36.99948" lon="-122.03992">
        <ele>73.15</ele>
      </trkpt>
      <trkpt lat="36.99932" lon="-122.03988">
        <ele>68.97</ele>
      </trkpt>
      <trkpt lat="36.99914" lon="-122.03971">
        <ele>65.17</ele>
      </trkpt>
      <trkpt lat="36.99898" lon="-122.03954">
        <ele>61.92</ele>
      </trkpt>
      <trkpt lat="36.9989" lon="-122.03945">
        <ele>60.19</ele>
      </trkpt>
      <trkpt lat="36.99879" lon="-122.03928">
        <ele>59.64</ele>
      </trkpt>
      <trkpt lat="36.99871" lon="-122.03915">
        <ele>58.32</ele>
      </trkpt>
      <trkpt lat="36.99859" lon="-122.03897">
        <ele>56.87</ele>
      </trkpt>
      <trkpt lat="36.99851" lon="-122.03887">
        <ele>55.82</ele>
      </trkpt>
      <trkpt lat="36.99842" lon="-122.03873">
        <ele>53.14</ele>
      </trkpt>
      <trkpt lat="36.99851" lon="-122.03867">
        <ele>55.39</ele>
      </trkpt>
      <trkpt lat="36.99863" lon="-122.0387">
        <ele>57.37</ele>
      </trkpt>
      <trkpt lat="36.99869" lon="-122.03883">
        <ele>59.07</ele>
      </trkpt>
      <trkpt lat="36.99874" lon="-122.03903">
        <ele>59.78</ele>
      </trkpt>
      <trkpt lat="36.99878" lon="-122.03921">
        <ele>59.65</ele>
      </trkpt>
      <trkpt lat="36.99882" lon="-122.03938">
        <ele>59.21</ele>
      </trkpt>
      <trkpt lat="36.99885" lon="-122.03954">
        <ele>58.15</ele>
      </trkpt>
      <trkpt lat="36.99888" lon="-122.03973">
        <ele>57.71</ele>
      </trkpt>
      <trkpt lat="36.99891" lon="-122.03987">
        <ele>58.0</ele>
      </trkpt>
      <trkpt lat="36.99886" lon="-122.04012">
        <ele>56.38</ele>
      </trkpt>
      <trkpt lat="36.99864" lon="-122.04004">
        <ele>50.76</ele>
      </trkpt>
      <trkpt lat="36.99841" lon="-122.03974">
        <ele>46.46</ele>
      </trkpt>
      <trkpt lat="36.99827" lon="-122.03961">
        <ele>44.84</ele>
      </trkpt>
      <trkpt lat="36.99819" lon="-122.03992">
        <ele>39.36</ele>
      </trkpt>
      <trkpt lat="36.99819" lon="-122.0401">
        <ele>39.36</ele>
      </trkpt>
      <trkpt lat="36.99819" lon="-122.04033">
        <ele>39.67</ele>
      </trkpt>
      <trkpt lat="36.99826" lon="-122.04052">
        <ele>42.62</ele>
      </trkpt>
      <trkpt lat="36.99839" lon="-122.04071">
        <ele>47.1</ele>
      </trkpt>
      <trkpt lat="36.9984" lon="-122.04084">
        <ele>47.16</ele>
      </trkpt>
      <trkpt lat="36.99836" lon="-122.04091">
        <ele>45.86</ele>
      </trkpt>
      <trkpt lat="36.99833" lon="-122.04084">
        <ele>44.93</ele>
      </trkpt>
      <trkpt lat="36.9983" lon="-122.04078">
        <ele>44.65</ele>
      </trkpt>
      <trkpt lat="36.99828" lon="-122.04072">
        <ele>44.18</ele>
      </trkpt>
      <trkpt lat="36.99828" lon="-122.04093">
        <ele>43.85</ele>
      </trkpt>
      <trkpt lat="36.99824" lon="-122.0408">
        <ele>42.98</ele>
      </trkpt>
      <trkpt lat="36.99818" lon="-122.04058">
        <ele>40.12</ele>
      </trkpt>
      <trkpt lat="36.9981" lon="-122.04034">
        <ele>37.28</ele>
      </trkpt>
      <trkpt lat="36.99795" lon="-122.04038">
        <ele>37.43</ele>
      </trkpt>
      <trkpt lat="36.99794" lon="-122.04067">
        <ele>40.98</ele>
      </trkpt>
      <trkpt lat="36.99794" lon="-122.04087">
        <ele>42.04</ele>
      </trkpt>
      <trkpt lat="36.99793" lon="-122.0411">
        <ele>43.28</ele>
      </trkpt>
      <trkpt lat="36.99787" lon="-122.04088">
        <ele>44.01</ele>
      </trkpt>
      <trkpt lat="36.99782" lon="-122.04068">
        <ele>45.33</ele>
      </trkpt>
      <trkpt lat="36.99776" lon="-122.04054">
        <ele>46.63</ele>
      </trkpt>
      <trkpt lat="36.99772" lon="-122.04037">
        <ele>47.12</ele>
      </trkpt>
      <trkpt lat="36.9977" lon="-122.04017">
        <ele>46.01</ele>
      </trkpt>
      <trkpt lat="36.99767" lon="-122.03999">
        <ele>44.6</ele>
      </trkpt>
      <trkpt lat="36.99764" lon="-122.0398">
        <ele>41.53</ele>
      </trkpt>
      <trkpt lat="36.99758" lon="-122.03955">
        <ele>38.22</ele>
      </trkpt>
      <trkpt lat="36.9975" lon="-122.03942">
        <ele>39.21</ele>
      </trkpt>
      <trkpt lat="36.99726" lon="-122.03928">
        <ele>46.82</ele>
      </trkpt>
      <trkpt lat="36.99721" lon="-122.03916">
        <ele>45.25</ele>
      </trkpt>
      <trkpt lat="36.99712" lon="-122.03905">
        <ele>45.69</ele>
      </trkpt>
      <trkpt lat="36.99703" lon="-122.03894">
        <ele>45.26</ele>
      </trkpt>
      <trkpt lat="36.99682" lon="-122.03876">
        <ele>44.9</ele>
      </trkpt>
      <trkpt lat="36.99667" lon="-122.03865">
        <ele>45.21</ele>
      </trkpt>
      <trkpt lat="36.99653" lon="-122.03857">
        <ele>47.33</ele>
      </trkpt>
      <trkpt lat="36.99631" lon="-122.03844">
        <ele>52.59</ele>
      </trkpt>
      <trkpt lat="36.99621" lon="-122.0383">
        <ele>53.58</ele>
      </trkpt>
      <trkpt lat="36.99611" lon="-122.03818">
        <ele>56.08</ele>
      </trkpt>
      <trkpt lat="36.99602" lon="-122.03806">
        <ele>57.02</ele>
      </trkpt>
      <trkpt lat="36.99593" lon="-122.03793">
        <ele>55.74</ele>
      </trkpt>
      <trkpt lat="36.99595" lon="-122.0378">
        <ele>50.06</ele>
      </trkpt>
      <trkpt lat="36.99589" lon="-122.03767">
        <ele>48.0</ele>
      </trkpt>
      <trkpt lat="36.99586" lon="-122.03758">
        <ele>45.77</ele>
      </trkpt>
      <trkpt lat="36.99577" lon="-122.03745">
        <ele>44.6</ele>
      </trkpt>
      <trkpt lat="36.99566" lon="-122.03734">
        <ele>42.05</ele>
      </trkpt>
      <trkpt lat="36.99558" lon="-122.03727">
        <ele>39.93</ele>
      </trkpt>
      <trkpt lat="36.99542" lon="-122.03713">
        <ele>37.01</ele>
      </trkpt>
      <trkpt lat="36.99528" lon="-122.03704">
        <ele>36.04</ele>
      </trkpt>
      <trkpt lat="36.99513" lon="-122.03692">
        <ele>35.33</ele>
      </trkpt>
      <trkpt lat="36.99491" lon="-122.03679">
        <ele>34.33</ele>
      </trkpt>
      <trkpt lat="36.99466" lon="-122.03667">
        <ele>34.06</ele>
      </trkpt>
      <trkpt lat="36.99457" lon="-122.03702">
        <ele>44.55</ele>
      </trkpt>
      <trkpt lat="36.99455" lon="-122.03725">
        <ele>53.6</ele>
      </trkpt>
      <trkpt lat="36.99439" lon="-122.03716">
        <ele>51.05</ele>
      </trkpt>
      <trkpt lat="36.9943" lon="-122.03704">
        <ele>49.61</ele>
      </trkpt>
      <trkpt lat="36.99418" lon="-122.03694">
        <ele>48.57</ele>
      </trkpt>
      <trkpt lat="36.99407" lon="-122.03688">
        <ele>48.64</ele>
      </trkpt>
      <trkpt lat="36.99397" lon="-122.03679">
        <ele>47.87</ele>
      </trkpt>
      <trkpt lat="36.99391" lon="-122.03671">
        <ele>47.48</ele>
      </trkpt>
      <trkpt lat="36.99384" lon="-122.03664">
        <ele>46.29</ele>
      </trkpt>
      <trkpt lat="36.99376" lon="-122.03657">
        <ele>45.33</ele>
      </trkpt>
      <trkpt lat="36.99367" lon="-122.03648">
        <ele>44.36</ele>
      </trkpt>
      <trkpt lat="36.99361" lon="-122.03639">
        <ele>44.02</ele>
      </trkpt>
      <trkpt lat="36.99363" lon="-122.03629">
        <ele>43.71</ele>
      </trkpt>
      <trkpt lat="36.99369" lon="-122.0362">
        <ele>41.19</ele>
      </trkpt>
      <trkpt lat="36.99361" lon="-122.03605">
        <ele>40.06</ele>
      </trkpt>
      <trkpt lat="36.9936" lon="-122.03594">
        <ele>37.04</ele>
      </trkpt>
      <trkpt lat="36.99358" lon="-122.0362">
        <ele>43.31</ele>
      </trkpt>
      <trkpt lat="36.99357" lon="-122.0362">
        <ele>43.42</ele>
      </trkpt>
      <trkpt lat="36.99349" lon="-122.03601">
        <ele>43.15</ele>
      </trkpt>
      <trkpt lat="36.9934" lon="-122.0358">
        <ele>41.58</ele>
      </trkpt>
      <trkpt lat="36.9933" lon="-122.03567">
        <ele>41.47</ele>
      </trkpt>
      <trkpt lat="36.99317" lon="-122.03559">
        <ele>42.99</ele>
      </trkpt>
      <trkpt lat="36.99304" lon="-122.03558">
        <ele>44.39</ele>
      </trkpt>
      <trkpt lat="36.99293" lon="-122.03542">
        <ele>43.89</ele>
      </trkpt>
      <trkpt lat="36.99286" lon="-122.03523">
        <ele>40.68</ele>
      </trkpt>
      <trkpt lat="36.99272" lon="-122.03504">
        <ele>36.25</ele>
      </trkpt>
      <trkpt lat="36.99262" lon="-122.03495">
        <ele>34.25</ele>
      </trkpt>
      <trkpt lat="36.99251" lon="-122.03488">
        <ele>33.63</ele>
      </trkpt>
      <trkpt lat="36.99243" lon="-122.03483">
        <ele>33.17</ele>
      </trkpt>
      <trkpt lat="36.99231" lon="-122.03477">
        <ele>33.12</ele>
      </trkpt>
      <trkpt lat="36.99222" lon="-122.0348">
        <ele>35.38</ele>
      </trkpt>
      <trkpt lat="36.99219" lon="-122.03491">
        <ele>40.07</ele>
      </trkpt>
      <trkpt lat="36.9921" lon="-122.035">
        <ele>41.36</ele>
      </trkpt>
      <trkpt lat="36.99204" lon="-122.03507">
        <ele>40.84</ele>
      </trkpt>
      <trkpt lat="36.992" lon="-122.03514">
        <ele>39.8</ele>
      </trkpt>
      <trkpt lat="36.99194" lon="-122.03522">
        <ele>37.87</ele>
      </trkpt>
      <trkpt lat="36.99187" lon="-122.03534">
        <ele>36.52</ele>
      </trkpt>
      <trkpt lat="36.99182" lon="-122.03543">
        <ele>35.19</ele>
      </trkpt>
      <trkpt lat="36.99175" lon="-122.03555">
        <ele>33.8</ele>
      </trkpt>
      <trkpt lat="36.99179" lon="-122.03566">
        <ele>35.66</ele>
      </trkpt>
      <trkpt lat="36.99183" lon="-122.03579">
        <ele>36.53</ele>
      </trkpt>
      <trkpt lat="36.99177" lon="-122.03592">
        <ele>35.23</ele>
      </trkpt>
      <trkpt lat="36.99176" lon="-122.03606">
        <ele>35.02</ele>
      </trkpt>
      <trkpt lat="36.99175" lon="-122.03617">
        <ele>34.13</ele>
      </trkpt>
      <trkpt lat="36.99175" lon="-122.03633">
        <ele>34.3</ele>
      </trkpt>
      <trkpt lat="36.99175" lon="-122.03644">
        <ele>35.55</ele>
      </trkpt>
      <trkpt lat="36.99174" lon="-122.0365">
        <ele>36.2</ele>
      </trkpt>
      <trkpt lat="36.99174" lon="-122.03641">
        <ele>35.23</ele>
      </trkpt>
      <trkpt lat="36.99172" lon="-122.03632">
        <ele>33.94</ele>
      </trkpt>
      <trkpt lat="36.99172" lon="-122.03635">
        <ele>34.4</ele>
      </trkpt>
      <trkpt lat="36.99173" lon="-122.03626">
        <ele>33.56</ele>
      </trkpt>
      <trkpt lat="36.99173" lon="-122.03616">
        <ele>33.69</ele>
      </trkpt>
      <trkpt lat="36.99173" lon="-122.03606">
        <ele>34.05</ele>
      </trkpt>
      <trkpt lat="36.99173" lon="-122.03595">
        <ele>34.29</ele>
      </trkpt>
      <trkpt lat="36.99172" lon="-122.03583">
        <ele>34.15</ele>
      </trkpt>
      <trkpt lat="36.99173" lon="-122.03575">
        <ele>34.37</ele>
      </trkpt>
      <trkpt lat="36.99173" lon="-122.03565">
        <ele>34.37</ele>
      </trkpt>
      <trkpt lat="36.99181" lon="-122.03557">
        <ele>35.25</ele>
      </trkpt>
      <trkpt lat="36.99188" lon="-122.03553">
        <ele>36.91</ele>
      </trkpt>
      <trkpt lat="36.99194" lon="-122.03546">
        <ele>38.86</ele>
      </trkpt>
      <trkpt lat="36.99197" lon="-122.03536">
        <ele>39.75</ele>
      </trkpt>
      <trkpt lat="36.99198" lon="-122.03528">
        <ele>39.55</ele>
      </trkpt>
      <trkpt lat="36.99199" lon="-122.03523">
        <ele>39.71</ele>
      </trkpt>
      <trkpt lat="36.992" lon="-122.03519">
        <ele>39.83</ele>
      </trkpt>
      <trkpt lat="36.99198" lon="-122.03516">
        <ele>39.15</ele>
      </trkpt>
      <trkpt lat="36.99196" lon="-122.03513">
        <ele>38.5</ele>
      </trkpt>
      <trkpt lat="36.99198" lon="-122.03508">
        <ele>39.02</ele>
      </trkpt>
      <trkpt lat="36.99201" lon="-122.03503">
        <ele>39.45</ele>
      </trkpt>
      <trkpt lat="36.99204" lon="-122.03499">
        <ele>39.95</ele>
      </trkpt>
      <trkpt lat="36.99206" lon="-122.03496">
        <ele>39.96</ele>
      </trkpt>
      <trkpt lat="36.9921" lon="-122.03504">
        <ele>42.09</ele>
      </trkpt>
      <trkpt lat="36.9921" lon="-122.03512">
        <ele>43.04</ele>
      </trkpt>
      <trkpt lat="36.99212" lon="-122.03519">
        <ele>43.69</ele>
      </trkpt>
      <trkpt lat="36.99216" lon="-122.03524">
        <ele>44.33</ele>
      </trkpt>
      <trkpt lat="36.99221" lon="-122.03528">
        <ele>44.87</ele>
      </trkpt>
      <trkpt lat="36.99226" lon="-122.03531">
        <ele>45.41</ele>
      </trkpt>
      <trkpt lat="36.9923" lon="-122.03534">
        <ele>45.84</ele>
      </trkpt>
      <trkpt lat="36.99237" lon="-122.03538">
        <ele>46.0</ele>
      </trkpt>
      <trkpt lat="36.99243" lon="-122.03542">
        <ele>46.0</ele>
      </trkpt>
      <trkpt lat="36.99248" lon="-122.03546">
        <ele>46.0</ele>
      </trkpt>
      <trkpt lat="36.99255" lon="-122.03548">
        <ele>46.0</ele>
      </trkpt>
      <trkpt lat="36.99261" lon="-122.03551">
        <ele>46.0</ele>
      </trkpt>
      <trkpt lat="36.99267" lon="-122.03554">
        <ele>46.0</ele>
      </trkpt>
      <trkpt lat="36.99271" lon="-122.03559">
        <ele>46.27</ele>
      </trkpt>
      <trkpt lat="36.99275" lon="-122.03564">
        <ele>46.27</ele>
      </trkpt>
      <trkpt lat="36.99279" lon="-122.03569">
        <ele>46.39</ele>
      </trkpt>
      <trkpt lat="36.99283" lon="-122.03578">
        <ele>46.44</ele>
      </trkpt>
      <trkpt lat="36.99285" lon="-122.03584">
        <ele>46.28</ele>
      </trkpt>
      <trkpt lat="36.99287" lon="-122.0359">
        <ele>46.72</ele>
      </trkpt>
      <trkpt lat="36.99291" lon="-122.03597">
        <ele>47.0</ele>
      </trkpt>
      <trkpt lat="36.99295" lon="-122.03602">
        <ele>47.0</ele>
      </trkpt>
      <trkpt lat="36.99299" lon="-122.03607">
        <ele>46.87</ele>
      </trkpt>
      <trkpt lat="36.99304" lon="-122.03612">
        <ele>47.0</ele>
      </trkpt>
      <trkpt lat="36.99308" lon="-122.03618">
        <ele>46.93</ele>
      </trkpt>
      <trkpt lat="36.99312" lon="-122.03622">
        <ele>46.88</ele>
      </trkpt>
      <trkpt lat="36.99316" lon="-122.03628">
        <ele>46.15</ele>
      </trkpt>
      <trkpt lat="36.99322" lon="-122.03634">
        <ele>46.11</ele>
      </trkpt>
      <trkpt lat="36.99327" lon="-122.0364">
        <ele>46.12</ele>
      </trkpt>
      <trkpt lat="36.99334" lon="-122.03648">
        <ele>46.98</ele>
      </trkpt>
      <trkpt lat="36.99339" lon="-122.03655">
        <ele>47.0</ele>
      </trkpt>
      <trkpt lat="36.99344" lon="-122.03661">
        <ele>47.0</ele>
      </trkpt>
      <trkpt lat="36.99348" lon="-122.03667">
        <ele>47.0</ele>
      </trkpt>
      <trkpt lat="36.99352" lon="-122.03672">
        <ele>47.01</ele>
      </trkpt>
      <trkpt lat="36.99358" lon="-122.03679">
        <ele>47.78</ele>
      </trkpt>
      <trkpt lat="36.99361" lon="-122.03685">
        <ele>48.0</ele>
      </trkpt>
      <trkpt lat="36.99365" lon="-122.0369">
        <ele>48.42</ele>
      </trkpt>
      <trkpt lat="36.99368" lon="-122.03696">
        <ele>48.74</ele>
      </trkpt>
      <trkpt lat="36.99372" lon="-122.03701">
        <ele>49.18</ele>
      </trkpt>
      <trkpt lat="36.99372" lon="-122.03706">
        <ele>49.18</ele>
      </trkpt>
      <trkpt lat="36.99368" lon="-122.03704">
        <ele>48.74</ele>
      </trkpt>
      <trkpt lat="36.99371" lon="-122.03702">
        <ele>49.07</ele>
      </trkpt>
      <trkpt lat="36.99378" lon="-122.03705">
        <ele>49.82</ele>
      </trkpt>
      <trkpt lat="36.99384" lon="-122.03706">
        <ele>50.0</ele>
      </trkpt>
      <trkpt lat="36.99389" lon="-122.03709">
        <ele>50.01</ele>
      </trkpt>
      <trkpt lat="36.99395" lon="-122.03712">
        <ele>50.66</ele>
      </trkpt>
      <trkpt lat="36.994" lon="-122.03714">
        <ele>51.0</ele>
      </trkpt>
      <trkpt lat="36.99406" lon="-122.03716">
        <ele>51.0</ele>
      </trkpt>
      <trkpt lat="36.99414" lon="-122.0372">
        <ele>51.0</ele>
      </trkpt>
      <trkpt lat="36.99419" lon="-122.03724">
        <ele>51.19</ele>
      </trkpt>
      <trkpt lat="36.99425" lon="-122.03727">
        <ele>51.52</ele>
      </trkpt>
      <trkpt lat="36.99432" lon="-122.03731">
        <ele>52.6</ele>
      </trkpt>
      <trkpt lat="36.99438" lon="-122.03735">
        <ele>53.68</ele>
      </trkpt>
      <trkpt lat="36.99444" lon="-122.03738">
        <ele>54.66</ele>
      </trkpt>
      <trkpt lat="36.99449" lon="-122.03742">
        <ele>55.56</ele>
      </trkpt>
      <trkpt lat="36.99455" lon="-122.03745">
        <ele>56.6</ele>
      </trkpt>
      <trkpt lat="36.99462" lon="-122.03749">
        <ele>57.79</ele>
      </trkpt>
      <trkpt lat="36.99467" lon="-122.03753">
        <ele>58.9</ele>
      </trkpt>
      <trkpt lat="36.99472" lon="-122.03756">
        <ele>60.26</ele>
      </trkpt>
      <trkpt lat="36.99476" lon="-122.0376">
        <ele>61.52</ele>
      </trkpt>
      <trkpt lat="36.9948" lon="-122.03763">
        <ele>62.58</ele>
      </trkpt>
      <trkpt lat="36.99484" lon="-122.0377">
        <ele>64.48</ele>
      </trkpt>
      <trkpt lat="36.99485" lon="-122.03778">
        <ele>65.78</ele>
      </trkpt>
      <trkpt lat="36.99487" lon="-122.03785">
        <ele>66.97</ele>
      </trkpt>
      <trkpt lat="36.99486" lon="-122.03794">
        <ele>67.73</ele>
      </trkpt>
      <trkpt lat="36.99484" lon="-122.03799">
        <ele>68.05</ele>
      </trkpt>
      <trkpt lat="36.99484" lon="-122.03806">
        <ele>69.37</ele>
      </trkpt>
      <trkpt lat="36.99485" lon="-122.03812">
        <ele>70.77</ele>
      </trkpt>
      <trkpt lat="36.99488" lon="-122.03819">
        <ele>72.61</ele>
      </trkpt>
      <trkpt lat="36.99491" lon="-122.03829">
        <ele>74.53</ele>
      </trkpt>
      <trkpt lat="36.99493" lon="-122.03834">
        <ele>75.0</ele>
      </trkpt>
      <trkpt lat="36.99497" lon="-122.0383">
        <ele>74.64</ele>
      </trkpt>
      <trkpt lat="36.99503" lon="-122.03825">
        <ele>74.1</ele>
      </trkpt>
      <trkpt lat="36.99509" lon="-122.03829">
        <ele>74.53</ele>
      </trkpt>
      <trkpt lat="36.99513" lon="-122.03832">
        <ele>74.91</ele>
      </trkpt>
      <trkpt lat="36.99518" lon="-122.03833">
        <ele>75.0</ele>
      </trkpt>
      <trkpt lat="36.99522" lon="-122.03833">
        <ele>75.36</ele>
      </trkpt>
      <trkpt lat="36.99525" lon="-122.03824">
        <ele>75.0</ele>
      </trkpt>
      <trkpt lat="36.99532" lon="-122.03819">
        <ele>75.46</ele>
      </trkpt>
      <trkpt lat="36.9954" lon="-122.03814">
        <ele>75.91</ele>
      </trkpt>
      <trkpt lat="36.99548" lon="-122.03813">
        <ele>75.84</ele>
      </trkpt>
      <trkpt lat="36.99555" lon="-122.03822">
        <ele>76.0</ele>
      </trkpt>
      <trkpt lat="36.99558" lon="-122.03833">
        <ele>76.0</ele>
      </trkpt>
      <trkpt lat="36.99561" lon="-122.03841">
        <ele>76.0</ele>
      </trkpt>
      <trkpt lat="36.99564" lon="-122.0385">
        <ele>76.0</ele>
      </trkpt>
      <trkpt lat="36.9957" lon="-122.03862">
        <ele>76.0</ele>
      </trkpt>
      <trkpt lat="36.99575" lon="-122.03871">
        <ele>76.07</ele>
      </trkpt>
      <trkpt lat="36.9958" lon="-122.0388">
        <ele>77.0</ele>
      </trkpt>
      <trkpt lat="36.99583" lon="-122.03887">
        <ele>77.0</ele>
      </trkpt>
      <trkpt lat="36.99586" lon="-122.03895">
        <ele>76.24</ele>
      </trkpt>
      <trkpt lat="36.99589" lon="-122.03903">
        <ele>76.2</ele>
      </trkpt>
      <trkpt lat="36.99593" lon="-122.03912">
        <ele>76.0</ele>
      </trkpt>
      <trkpt lat="36.99596" lon="-122.03919">
        <ele>75.91</ele>
      </trkpt>
      <trkpt lat="36.996" lon="-122.03927">
        <ele>75.2</ele>
      </trkpt>
      <trkpt lat="36.99603" lon="-122.03933">
        <ele>75.0</ele>
      </trkpt>
      <trkpt lat="36.99608" lon="-122.03941">
        <ele>74.58</ele>
      </trkpt>
      <trkpt lat="36.99616" lon="-122.03953">
        <ele>74.0</ele>
      </trkpt>
      <trkpt lat="36.99622" lon="-122.03961">
        <ele>73.96</ele>
      </trkpt>
      <trkpt lat="36.99629" lon="-122.03968">
        <ele>74.04</ele>
      </trkpt>
      <trkpt lat="36.99633" lon="-122.03956">
        <ele>72.88</ele>
      </trkpt>
      <trkpt lat="36.99643" lon="-122.03961">
        <ele>72.34</ele>
      </trkpt>
      <trkpt lat="36.99648" lon="-122.0397">
        <ele>72.03</ele>
      </trkpt>
      <trkpt lat="36.99653" lon="-122.0398">
        <ele>72.32</ele>
      </trkpt>
      <trkpt lat="36.99658" lon="-122.03988">
        <ele>72.64</ele>
      </trkpt>
      <trkpt lat="36.99664" lon="-122.03998">
        <ele>73.07</ele>
      </trkpt>
      <trkpt lat="36.9967" lon="-122.04007">
        <ele>73.12</ele>
      </trkpt>
      <trkpt lat="36.99677" lon="-122.04016">
        <ele>72.61</ele>
      </trkpt>
      <trkpt lat="36.99682" lon="-122.04023">
        <ele>72.51</ele>
      </trkpt>
      <trkpt lat="36.99688" lon="-122.04031">
        <ele>71.94</ele>
      </trkpt>
      <trkpt lat="36.99694" lon="-122.0404">
        <ele>71.4</ele>
      </trkpt>
      <trkpt lat="36.99701" lon="-122.04052">
        <ele>70.58</ele>
      </trkpt>
      <trkpt lat="36.99706" lon="-122.04062">
        <ele>69.5</ele>
      </trkpt>
      <trkpt lat="36.99695" lon="-122.04068">
        <ele>71.88</ele>
      </trkpt>
      <trkpt lat="36.99688" lon="-122.04077">
        <ele>73.17</ele>
      </trkpt>
      <trkpt lat="36.99686" lon="-122.04088">
        <ele>72.87</ele>
      </trkpt>
      <trkpt lat="36.99683" lon="-122.041">
        <ele>72.62</ele>
      </trkpt>
      <trkpt lat="36.9968" lon="-122.04107">
        <ele>72.81</ele>
      </trkpt>
      <trkpt lat="36.99677" lon="-122.04114">
        <ele>72.88</ele>
      </trkpt>
      <trkpt lat="36.99675" lon="-122.04122">
        <ele>72.92</ele>
      </trkpt>
      <trkpt lat="36.99673" lon="-122.04131">
        <ele>72.32</ele>
      </trkpt>
      <trkpt lat="36.99673" lon="-122.04143">
        <ele>72.32</ele>
      </trkpt>
      <trkpt lat="36.99675" lon="-122.04152">
        <ele>72.1</ele>
      </trkpt>
      <trkpt lat="36.99678" lon="-122.04164">
        <ele>72.33</ele>
      </trkpt>
      <trkpt lat="36.99692" lon="-122.04173">
        <ele>70.44</ele>
      </trkpt>
      <trkpt lat="36.99695" lon="-122.04182">
        <ele>69.94</ele>
      </trkpt>
      <trkpt lat="36.99693" lon="-122.04195">
        <ele>71.16</ele>
      </trkpt>
      <trkpt lat="36.99693" lon="-122.04203">
        <ele>71.16</ele>
      </trkpt>
      <trkpt lat="36.99692" lon="-122.04213">
        <ele>71.26</ele>
      </trkpt>
      <trkpt lat="36.99691" lon="-122.04222">
        <ele>71.37</ele>
      </trkpt>
      <trkpt lat="36.9969" lon="-122.04232">
        <ele>71.48</ele>
      </trkpt>
      <trkpt lat="36.9969" lon="-122.04242">
        <ele>71.48</ele>
      </trkpt>
      <trkpt lat="36.99689" lon="-122.04232">
        <ele>71.59</ele>
      </trkpt>
      <trkpt lat="36.99687" lon="-122.04245">
        <ele>71.8</ele>
      </trkpt>
      <trkpt lat="36.99685" lon="-122.04258">
        <ele>72.02</ele>
      </trkpt>
      <trkpt lat="36.99683" lon="-122.04273">
        <ele>72.72</ele>
      </trkpt>
      <trkpt lat="36.99681" lon="-122.04288">
        <ele>74.51</ele>
      </trkpt>
      <trkpt lat="36.99679" lon="-122.04301">
        <ele>75.34</ele>
      </trkpt>
      <trkpt lat="36.99677" lon="-122.04311">
        <ele>75.88</ele>
      </trkpt>
      <trkpt lat="36.99677" lon="-122.04323">
        <ele>76.67</ele>
      </trkpt>
      <trkpt lat="36.99676" lon="-122.04342">
        <ele>77.92</ele>
      </trkpt>
      <trkpt lat="36.99673" lon="-122.04361">
        <ele>79.3</ele>
      </trkpt>
      <trkpt lat="36.99671" lon="-122.04378">
        <ele>80.82</ele>
      </trkpt>
      <trkpt lat="36.99668" lon="-122.04398">
        <ele>82.84</ele>
      </trkpt>
      <trkpt lat="36.99666" lon="-122.04418">
        <ele>85.22</ele>
      </trkpt>
      <trkpt lat="36.99665" lon="-122.04427">
        <ele>86.3</ele>
      </trkpt>
      <trkpt lat="36.99664" lon="-122.04438">
        <ele>87.59</ele>
      </trkpt>
      <trkpt lat="36.99664" lon="-122.04447">
        <ele>88.76</ele>
      </trkpt>
      <trkpt lat="36.99663" lon="-122.04474">
        <ele>92.19</ele>
      </trkpt>
      <trkpt lat="36.99663" lon="-122.04482">
        <ele>93.06</ele>
      </trkpt>
      <trkpt lat="36.99662" lon="-122.04475">
        <ele>92.3</ele>
      </trkpt>
      <trkpt lat="36.9966" lon="-122.0448">
        <ele>92.84</ele>
      </trkpt>
      <trkpt lat="36.99661" lon="-122.04526">
        <ele>98.2</ele>
      </trkpt>
      <trkpt lat="36.99662" lon="-122.0454">
        <ele>100.14</ele>
      </trkpt>
      <trkpt lat="36.99667" lon="-122.04557">
        <ele>104.16</ele>
      </trkpt>
      <trkpt lat="36.99682" lon="-122.0456">
        <ele>104.65</ele>
      </trkpt>
      <trkpt lat="36.99692" lon="-122.04564">
        <ele>104.05</ele>
      </trkpt>
      <trkpt lat="36.99701" lon="-122.04575">
        <ele>103.41</ele>
      </trkpt>
      <trkpt lat="36.997" lon="-122.0461">
        <ele>111.81</ele>
      </trkpt>
      <trkpt lat="36.99709" lon="-122.04638">
        <ele>114.9</ele>
      </trkpt>
      <trkpt lat="36.99713" lon="-122.04652">
        <ele>117.41</ele>
      </trkpt>
      <trkpt lat="36.99715" lon="-122.0466">
        <ele>118.34</ele>
      </trkpt>
      <trkpt lat="36.99718" lon="-122.0467">
        <ele>120.1</ele>
      </trkpt>
      <trkpt lat="36.99721" lon="-122.04677">
        <ele>121.85</ele>
      </trkpt>
      <trkpt lat="36.99725" lon="-122.0467">
        <ele>120.72</ele>
      </trkpt>
      <trkpt lat="36.99714" lon="-122.04669">
        <ele>119.39</ele>
      </trkpt>
      <trkpt lat="36.9972" lon="-122.04677">
        <ele>121.64</ele>
      </trkpt>
      <trkpt lat="36.99731" lon="-122.0469">
        <ele>124.47</ele>
      </trkpt>
      <trkpt lat="36.99742" lon="-122.04708">
        <ele>127.53</ele>
      </trkpt>
      <trkpt lat="36.99746" lon="-122.04717">
        <ele>129.0</ele>
      </trkpt>
      <trkpt lat="36.99749" lon="-122.04725">
        <ele>130.19</ele>
      </trkpt>
      <trkpt lat="36.99754" lon="-122.04755">
        <ele>134.28</ele>
      </trkpt>
      <trkpt lat="36.99753" lon="-122.04774">
        <ele>136.78</ele>
      </trkpt>
      <trkpt lat="36.99743" lon="-122.04819">
        <ele>138.49</ele>
      </trkpt>
      <trkpt lat="36.99727" lon="-122.04862">
        <ele>138.61</ele>
      </trkpt>
      <trkpt lat="36.99707" lon="-122.04891">
        <ele>139.58</ele>
      </trkpt>
      <trkpt lat="36.99682" lon="-122.04898">
        <ele>139.97</ele>
      </trkpt>
      <trkpt lat="36.99657" lon="-122.04899">
        <ele>140.27</ele>
      </trkpt>
      <trkpt lat="36.99632" lon="-122.04903">
        <ele>143.79</ele>
      </trkpt>
      <trkpt lat="36.99627" lon="-122.04881">
        <ele>139.05</ele>
      </trkpt>
      <trkpt lat="36.99626" lon="-122.04855">
        <ele>132.55</ele>
      </trkpt>
      <trkpt lat="36.99624" lon="-122.04833">
        <ele>129.91</ele>
      </trkpt>
      <trkpt lat="36.99619" lon="-122.04818">
        <ele>125.38</ele>
      </trkpt>
      <trkpt lat="36.996" lon="-122.04802">
        <ele>116.34</ele>
      </trkpt>
      <trkpt lat="36.99589" lon="-122.04812">
        <ele>119.51</ele>
      </trkpt>
      <trkpt lat="36.99582" lon="-122.04836">
        <ele>127.43</ele>
      </trkpt>
      <trkpt lat="36.99574" lon="-122.04868">
        <ele>132.48</ele>
      </trkpt>
      <trkpt lat="36.99547" lon="-122.0487">
        <ele>131.96</ele>
      </trkpt>
      <trkpt lat="36.99536" lon="-122.04867">
        <ele>131.27</ele>
      </trkpt>
      <trkpt lat="36.99527" lon="-122.04866">
        <ele>131.01</ele>
      </trkpt>
      <trkpt lat="36.99513" lon="-122.04867">
        <ele>130.64</ele>
      </trkpt>
      <trkpt lat="36.99504" lon="-122.04867">
        <ele>130.64</ele>
      </trkpt>
      <trkpt lat="36.99495" lon="-122.04867">
        <ele>130.44</ele>
      </trkpt>
      <trkpt lat="36.99476" lon="-122.04869">
        <ele>130.7</ele>
      </trkpt>
      <trkpt lat="36.99463" lon="-122.04872">
        <ele>130.18</ele>
      </trkpt>
      <trkpt lat="36.99452" lon="-122.04876">
        <ele>130.54</ele>
      </trkpt>
      <trkpt lat="36.99441" lon="-122.04879">
        <ele>130.49</ele>
      </trkpt>
      <trkpt lat="36.99432" lon="-122.04882">
        <ele>130.0</ele>
      </trkpt>
      <trkpt lat="36.99425" lon="-122.04885">
        <ele>130.06</ele>
      </trkpt>
      <trkpt lat="36.99413" lon="-122.0489">
        <ele>130.19</ele>
      </trkpt>
      <trkpt lat="36.99405" lon="-122.04893">
        <ele>130.3</ele>
      </trkpt>
      <trkpt lat="36.99396" lon="-122.04897">
        <ele>130.75</ele>
      </trkpt>
      <trkpt lat="36.99383" lon="-122.04901">
        <ele>131.31</ele>
      </trkpt>
      <trkpt lat="36.99371" lon="-122.04904">
        <ele>131.63</ele>
      </trkpt>
      <trkpt lat="36.99364" lon="-122.04905">
        <ele>131.74</ele>
      </trkpt>
      <trkpt lat="36.9935" lon="-122.04908">
        <ele>132.12</ele>
      </trkpt>
      <trkpt lat="36.99339" lon="-122.04909">
        <ele>132.17</ele>
      </trkpt>
      <trkpt lat="36.99325" lon="-122.04911">
        <ele>132.39</ele>
      </trkpt>
      <trkpt lat="36.99313" lon="-122.04914">
        <ele>132.91</ele>
      </trkpt>
      <trkpt lat="36.993" lon="-122.04917">
        <ele>134.67</ele>
      </trkpt>
      <trkpt lat="36.99288" lon="-122.04906">
        <ele>133.85</ele>
      </trkpt>
      <trkpt lat="36.99283" lon="-122.04893">
        <ele>132.88</ele>
      </trkpt>
      <trkpt lat="36.99277" lon="-122.04882">
        <ele>131.57</ele>
      </trkpt>
      <trkpt lat="36.99266" lon="-122.04873">
        <ele>131.28</ele>
      </trkpt>
      <trkpt lat="36.99256" lon="-122.04868">
        <ele>130.49</ele>
      </trkpt>
      <trkpt lat="36.99247" lon="-122.04866">
        <ele>130.21</ele>
      </trkpt>
      <trkpt lat="36.99235" lon="-122.04865">
        <ele>130.42</ele>
      </trkpt>
      <trkpt lat="36.99222" lon="-122.04861">
        <ele>129.98</ele>
      </trkpt>
      <trkpt lat="36.99223" lon="-122.04869">
        <ele>130.85</ele>
      </trkpt>
      <trkpt lat="36.9922" lon="-122.04873">
        <ele>131.74</ele>
      </trkpt>
      <trkpt lat="36.99215" lon="-122.04867">
        <ele>131.13</ele>
      </trkpt>
      <trkpt lat="36.99208" lon="-122.0486">
        <ele>130.42</ele>
      </trkpt>
      <trkpt lat="36.992" lon="-122.04856">
        <ele>130.85</ele>
      </trkpt>
      <trkpt lat="36.99192" lon="-122.04852">
        <ele>131.02</ele>
      </trkpt>
      <trkpt lat="36.99184" lon="-122.0485">
        <ele>130.93</ele>
      </trkpt>
      <trkpt lat="36.99174" lon="-122.04847">
        <ele>131.48</ele>
      </trkpt>
      <trkpt lat="36.99166" lon="-122.04844">
        <ele>131.22</ele>
      </trkpt>
      <trkpt lat="36.99156" lon="-122.0484">
        <ele>131.87</ele>
      </trkpt>
      <trkpt lat="36.99148" lon="-122.04836">
        <ele>132.29</ele>
      </trkpt>
      <trkpt lat="36.99141" lon="-122.04832">
        <ele>131.82</ele>
      </trkpt>
      <trkpt lat="36.99133" lon="-122.04828">
        <ele>132.06</ele>
      </trkpt>
      <trkpt lat="36.99127" lon="-122.04824">
        <ele>131.99</ele>
      </trkpt>
      <trkpt lat="36.99119" lon="-122.04819">
        <ele>131.52</ele>
      </trkpt>
      <trkpt lat="36.99112" lon="-122.04815">
        <ele>131.04</ele>
      </trkpt>
      <trkpt lat="36.99106" lon="-122.04811">
        <ele>130.91</ele>
      </trkpt>
      <trkpt lat="36.99101" lon="-122.04808">
        <ele>130.6</ele>
      </trkpt>
      <trkpt lat="36.99094" lon="-122.04806">
        <ele>130.9</ele>
      </trkpt>
      <trkpt lat="36.9909" lon="-122.04804">
        <ele>130.66</ele>
      </trkpt>
      <trkpt lat="36.99083" lon="-122.04801">
        <ele>130.03</ele>
      </trkpt>
      <trkpt lat="36.99074" lon="-122.04798">
        <ele>130.19</ele>
      </trkpt>
      <trkpt lat="36.99064" lon="-122.04795">
        <ele>129.81</ele>
      </trkpt>
      <trkpt lat="36.99055" lon="-122.04793">
        <ele>130.29</ele>
      </trkpt>
      <trkpt lat="36.99045" lon="-122.0479">
        <ele>129.78</ele>
      </trkpt>
      <trkpt lat="36.99036" lon="-122.04788">
        <ele>130.31</ele>
      </trkpt>
      <trkpt lat="36.99025" lon="-122.04786">
        <ele>131.11</ele>
      </trkpt>
      <trkpt lat="36.99013" lon="-122.04783">
        <ele>132.16</ele>
      </trkpt>
      <trkpt lat="36.99006" lon="-122.04781">
        <ele>132.7</ele>
      </trkpt>
      <trkpt lat="36.98993" lon="-122.04777">
        <ele>134.43</ele>
      </trkpt>
      <trkpt lat="36.98984" lon="-122.04763">
        <ele>134.13</ele>
      </trkpt>
      <trkpt lat="36.98992" lon="-122.04748">
        <ele>131.65</ele>
      </trkpt>
      <trkpt lat="36.98993" lon="-122.0474">
        <ele>130.68</ele>
      </trkpt>
      <trkpt lat="36.9899" lon="-122.04729">
        <ele>130.14</ele>
      </trkpt>
      <trkpt lat="36.98984" lon="-122.04721">
        <ele>130.6</ele>
      </trkpt>
      <trkpt lat="36.98977" lon="-122.04716">
        <ele>130.81</ele>
      </trkpt>
      <trkpt lat="36.98972" lon="-122.04713">
        <ele>131.03</ele>
      </trkpt>
      <trkpt lat="36.98966" lon="-122.04712">
        <ele>131.67</ele>
      </trkpt>
      <trkpt lat="36.98962" lon="-122.04716">
        <ele>132.0</ele>
      </trkpt>
      <trkpt lat="36.98956" lon="-122.04721">
        <ele>132.0</ele>
      </trkpt>
      <trkpt lat="36.98949" lon="-122.04722">
        <ele>131.99</ele>
      </trkpt>
      <trkpt lat="36.98943" lon="-122.04724">
        <ele>132.04</ele>
      </trkpt>
      <trkpt lat="36.98937" lon="-122.04725">
        <ele>131.5</ele>
      </trkpt>
      <trkpt lat="36.98931" lon="-122.04727">
        <ele>131.52</ele>
      </trkpt>
      <trkpt lat="36.98924" lon="-122.0473">
        <ele>131.84</ele>
      </trkpt>
      <trkpt lat="36.98918" lon="-122.04732">
        <ele>132.06</ele>
      </trkpt>
      <trkpt lat="36.98913" lon="-122.04735">
        <ele>131.98</ele>
      </trkpt>
      <trkpt lat="36.98904" lon="-122.04738">
        <ele>131.44</ele>
      </trkpt>
      <trkpt lat="36.98899" lon="-122.04741">
        <ele>131.15</ele>
      </trkpt>
      <trkpt lat="36.98894" lon="-122.04744">
        <ele>131.55</ele>
      </trkpt>
      <trkpt lat="36.9889" lon="-122.04746">
        <ele>131.64</ele>
      </trkpt>
      <trkpt lat="36.98885" lon="-122.04748">
        <ele>131.69</ele>
      </trkpt>
      <trkpt lat="36.9888" lon="-122.04751">
        <ele>132.11</ele>
      </trkpt>
      <trkpt lat="36.98876" lon="-122.04753">
        <ele>131.93</ele>
      </trkpt>
      <trkpt lat="36.9887" lon="-122.04755">
        <ele>131.54</ele>
      </trkpt>
      <trkpt lat="36.98866" lon="-122.04756">
        <ele>131.65</ele>
      </trkpt>
      <trkpt lat="36.98862" lon="-122.04757">
        <ele>131.76</ele>
      </trkpt>
      <trkpt lat="36.98857" lon="-122.04758">
        <ele>131.86</ele>
      </trkpt>
      <trkpt lat="36.9885" lon="-122.0476">
        <ele>132.08</ele>
      </trkpt>
      <trkpt lat="36.98845" lon="-122.04762">
        <ele>132.3</ele>
      </trkpt>
      <trkpt lat="36.98839" lon="-122.04763">
        <ele>132.25</ele>
      </trkpt>
      <trkpt lat="36.98835" lon="-122.04765">
        <ele>132.11</ele>
      </trkpt>
      <trkpt lat="36.9883" lon="-122.04767">
        <ele>131.94</ele>
      </trkpt>
      <trkpt lat="36.98823" lon="-122.04769">
        <ele>131.94</ele>
      </trkpt>
      <trkpt lat="36.98818" lon="-122.04771">
        <ele>131.79</ele>
      </trkpt>
      <trkpt lat="36.98811" lon="-122.04774">
        <ele>131.94</ele>
      </trkpt>
      <trkpt lat="36.98805" lon="-122.04777">
        <ele>131.91</ele>
      </trkpt>
      <trkpt lat="36.98797" lon="-122.0478">
        <ele>132.24</ele>
      </trkpt>
      <trkpt lat="36.98789" lon="-122.04783">
        <ele>132.56</ele>
      </trkpt>
      <trkpt lat="36.98783" lon="-122.04785">
        <ele>132.78</ele>
      </trkpt>
      <trkpt lat="36.98776" lon="-122.04786">
        <ele>132.89</ele>
      </trkpt>
      <trkpt lat="36.98766" lon="-122.04787">
        <ele>133.0</ele>
      </trkpt>
      <trkpt lat="36.98763" lon="-122.04779">
        <ele>132.65</ele>
      </trkpt>
      <trkpt lat="36.9876" lon="-122.04769">
        <ele>131.1</ele>
      </trkpt>
      <trkpt lat="36.98756" lon="-122.04762">
        <ele>130.65</ele>
      </trkpt>
      <trkpt lat="36.9875" lon="-122.04756">
        <ele>131.0</ele>
      </trkpt>
      <trkpt lat="36.98745" lon="-122.04751">
        <ele>131.06</ele>
      </trkpt>
      <trkpt lat="36.98741" lon="-122.04748">
        <ele>130.99</ele>
      </trkpt>
      <trkpt lat="36.98736" lon="-122.04745">
        <ele>131.24</ele>
      </trkpt>
      <trkpt lat="36.98731" lon="-122.04743">
        <ele>131.24</ele>
      </trkpt>
      <trkpt lat="36.98725" lon="-122.0474">
        <ele>130.94</ele>
      </trkpt>
      <trkpt lat="36.98721" lon="-122.04737">
        <ele>130.6</ele>
      </trkpt>
      <trkpt lat="36.98715" lon="-122.04735">
        <ele>130.38</ele>
      </trkpt>
      <trkpt lat="36.98708" lon="-122.04732">
        <ele>130.06</ele>
      </trkpt>
      <trkpt lat="36.98701" lon="-122.04731">
        <ele>129.93</ele>
      </trkpt>
      <trkpt lat="36.98694" lon="-122.04729">
        <ele>129.48</ele>
      </trkpt>
      <trkpt lat="36.98687" lon="-122.04728">
        <ele>129.55</ele>
      </trkpt>
      <trkpt lat="36.9868" lon="-122.04725">
        <ele>129.86</ele>
      </trkpt>
      <trkpt lat="36.98674" lon="-122.04723">
        <ele>130.27</ele>
      </trkpt>
      <trkpt lat="36.98669" lon="-122.04721">
        <ele>130.62</ele>
      </trkpt>
      <trkpt lat="36.98663" lon="-122.04718">
        <ele>130.54</ele>
      </trkpt>
      <trkpt lat="36.98658" lon="-122.04715">
        <ele>130.22</ele>
      </trkpt>
      <trkpt lat="36.98653" lon="-122.04712">
        <ele>129.9</ele>
      </trkpt>
      <trkpt lat="36.98648" lon="-122.04709">
        <ele>129.57</ele>
      </trkpt>
      <trkpt lat="36.98641" lon="-122.04705">
        <ele>129.14</ele>
      </trkpt>
      <trkpt lat="36.98636" lon="-122.04702">
        <ele>128.56</ele>
      </trkpt>
      <trkpt lat="36.9863" lon="-122.04698">
        <ele>128.02</ele>
      </trkpt>
      <trkpt lat="36.98626" lon="-122.04695">
        <ele>128.0</ele>
      </trkpt>
      <trkpt lat="36.98622" lon="-122.04693">
        <ele>127.84</ele>
      </trkpt>
      <trkpt lat="36.98615" lon="-122.04689">
        <ele>127.17</ele>
      </trkpt>
      <trkpt lat="36.98611" lon="-122.04686">
        <ele>126.99</ele>
      </trkpt>
      <trkpt lat="36.98606" lon="-122.04683">
        <ele>126.34</ele>
      </trkpt>
      <trkpt lat="36.98602" lon="-122.04682">
        <ele>126.01</ele>
      </trkpt>
      <trkpt lat="36.98599" lon="-122.0468">
        <ele>125.83</ele>
      </trkpt>
      <trkpt lat="36.98596" lon="-122.04678">
        <ele>125.51</ele>
      </trkpt>
      <trkpt lat="36.98592" lon="-122.04676">
        <ele>125.01</ele>
      </trkpt>
      <trkpt lat="36.98588" lon="-122.04673">
        <ele>124.84</ele>
      </trkpt>
      <trkpt lat="36.98584" lon="-122.04672">
        <ele>124.61</ele>
      </trkpt>
      <trkpt lat="36.9858" lon="-122.0467">
        <ele>124.36</ele>
      </trkpt>
      <trkpt lat="36.98576" lon="-122.04667">
        <ele>124.04</ele>
      </trkpt>
      <trkpt lat="36.98571" lon="-122.04665">
        <ele>123.82</ele>
      </trkpt>
      <trkpt lat="36.98566" lon="-122.04663">
        <ele>123.6</ele>
      </trkpt>
      <trkpt lat="36.9856" lon="-122.04665">
        <ele>123.82</ele>
      </trkpt>
      <trkpt lat="36.98557" lon="-122.04667">
        <ele>124.01</ele>
      </trkpt>
      <trkpt lat="36.98554" lon="-122.04668">
        <ele>124.0</ele>
      </trkpt>
      <trkpt lat="36.98549" lon="-122.04668">
        <ele>124.0</ele>
      </trkpt>
      <trkpt lat="36.98546" lon="-122.04669">
        <ele>123.98</ele>
      </trkpt>
      <trkpt lat="36.98542" lon="-122.04669">
        <ele>123.65</ele>
      </trkpt>
      <trkpt lat="36.98538" lon="-122.0467">
        <ele>123.43</ele>
      </trkpt>
      <trkpt lat="36.98534" lon="-122.04671">
        <ele>123.47</ele>
      </trkpt>
      <trkpt lat="36.9853" lon="-122.04672">
        <ele>123.58</ele>
      </trkpt>
      <trkpt lat="36.98527" lon="-122.04673">
        <ele>123.6</ele>
      </trkpt>
      <trkpt lat="36.98523" lon="-122.04674">
        <ele>123.28</ele>
      </trkpt>
      <trkpt lat="36.98519" lon="-122.04675">
        <ele>122.95</ele>
      </trkpt>
      <trkpt lat="36.98514" lon="-122.04676">
        <ele>123.01</ele>
      </trkpt>
      <trkpt lat="36.98509" lon="-122.04678">
        <ele>123.2</ele>
      </trkpt>
      <trkpt lat="36.98504" lon="-122.0468">
        <ele>122.87</ele>
      </trkpt>
      <trkpt lat="36.98499" lon="-122.04682">
        <ele>122.66</ele>
      </trkpt>
      <trkpt lat="36.98493" lon="-122.04685">
        <ele>122.98</ele>
      </trkpt>
      <trkpt lat="36.98489" lon="-122.04687">
        <ele>123.01</ele>
      </trkpt>
      <trkpt lat="36.98483" lon="-122.04691">
        <ele>122.79</ele>
      </trkpt>
      <trkpt lat="36.98478" lon="-122.04694">
        <ele>122.95</ele>
      </trkpt>
      <trkpt lat="36.98474" lon="-122.04697">
        <ele>123.28</ele>
      </trkpt>
      <trkpt lat="36.98469" lon="-122.04702">
        <ele>123.47</ele>
      </trkpt>
      <trkpt lat="36.98464" lon="-122.04706">
        <ele>123.36</ele>
      </trkpt>
      <trkpt lat="36.98458" lon="-122.04712">
        <ele>123.9</ele>
      </trkpt>
      <trkpt lat="36.98451" lon="-122.04718">
        <ele>123.87</ele>
      </trkpt>
      <trkpt lat="36.98442" lon="-122.04725">
        <ele>124.04</ele>
      </trkpt>
      <trkpt lat="36.98437" lon="-122.04719">
        <ele>122.85</ele>
      </trkpt>
      <trkpt lat="36.98434" lon="-122.04713">
        <ele>121.88</ele>
      </trkpt>
      <trkpt lat="36.9843" lon="-122.04706">
        <ele>121.11</ele>
      </trkpt>
    </trkseg>
  </trk>
</gpx>
